{"type":"FeatureCollection","features":[{"type":"Feature","properties":{"region_id":"SA-04","name_en":"Eastern Province","name_ar":"المنطقة الشرقية"},"geometry":{"type":"MultiPolygon","coordinates":[[[[50.298,25.573],[50.2995,25.566],[50.3035,25.5585],[50.309,25.556],[50.313,25.5525],[50.32,25.5515],[50.3265,25.5445],[50.333,25.5425],[50.3415,25.518],[50.3425,25.5165],[50.3465,25.5165],[50.352,25.505],[50.3465,25.525],[50.3395,25.541],[50.341,25.559],[50.3395,25.5625],[50.3335,25.5675],[50.3195,25.5735],[50.307,25.5755],[50.298,25.573]]],[[[49.5795,27.112],[49.5805,27.106],[49.586,27.1075],[49.5845,27.114],[49.5905,27.1235],[49.591,27.1275],[49.585,27.127],[49.586,27.123],[49.5795,27.112]]],[[[49.484,27.1555],[49.485,27.1515],[49.484,27.1475],[49.488,27.1435],[49.4855,27.1345],[49.4865,27.132],[49.486,27.136],[49.489,27.1395],[49.4945,27.1385],[49.494,27.1365],[49.4995,27.1335],[49.5045,27.1255],[49.505,27.127],[49.5,27.1375],[49.499,27.138],[49.499,27.136],[49.5015,27.1325],[49.4955,27.1365],[49.4955,27.143],[49.494,27.1475],[49.486,27.155],[49.484,27.1555]]],[[[44.9795,27.6725],[45.2245,27.243],[45.794,26.948],[46.381,26.7305],[46.9365,26.5415],[47.43,26.2655],[47.4855,25.474],[48.1845,24.222],[47.802,19.99],[49.1165,18.6165],[55.6665,22],[51.589,24.2545],[51.512,24.2835],[51.472,24.3155],[51.372,24.2985],[51.296,24.284],[51.2775,24.297],[51.286,24.317],[51.288,24.339],[51.302,24.3565],[51.3015,24.39],[51.315,24.418],[51.3865,24.4775],[51.4345,24.5325],[51.47,24.557],[51.4935,24.566],[51.4875,24.5805],[51.473,24.5925],[51.4525,24.598],[51.439,24.6225],[51.419,24.6155],[51.399,24.622],[51.347,24.555],[51.3205,24.516],[50.9345,24.5415],[50.769,24.72],[50.7355,24.829],[50.673,24.909],[50.639,24.99],[50.575,25.0625],[50.571,25.064],[50.5235,25.231],[50.4935,25.381],[50.4265,25.4455],[50.384,25.511],[50.3925,25.4425],[50.399,25.4115],[50.343,25.4865],[50.2805,25.5535],[50.2155,25.643],[50.1985,25.671],[50.153,25.7],[50.161,25.731],[50.214,25.684],[50.255,25.6525],[50.2655,25.6565],[50.161,25.797],[50.118,25.867],[50.103,25.901],[50.117,25.943],[50.033,26.022],[49.997,26.017],[50.0005,26.027],[50.008,26.0855],[50.0035,26.0915],[49.995,26.099],[50.033,26.202],[50.077,26.1395],[50.1135,26.092],[50.1155,26.0815],[50.1225,26.056],[50.1415,26.055],[50.1365,26.0415],[50.157,26.0495],[50.154,26.0565],[50.153,26.076],[50.1615,26.0925],[50.1635,26.119],[50.172,26.1425],[50.184,26.174],[50.195,26.1585],[50.206,26.1695],[50.22,26.1865],[50.2205,26.222],[50.214,26.2325],[50.2215,26.2555],[50.225,26.2985],[50.2275,26.3405],[50.2205,26.3815],[50.177,26.42],[50.1895,26.4395],[50.205,26.469],[50.207,26.4805],[50.2125,26.5025],[50.187,26.5055],[50.122,26.5],[50.1125,26.466],[50.0985,26.4855],[50.0855,26.47],[50.0715,26.4735],[50.0395,26.509],[50.0235,26.5535],[50.0485,26.5455],[50.091,26.5705],[50.0635,26.5985],[50.014,26.6225],[50.011,26.649],[49.993,26.734],[50.0315,26.6865],[50.0645,26.688],[50.1255,26.681],[50.162,26.6265],[50.0705,26.7335],[49.9065,26.8565],[49.859,26.894],[49.8465,26.877],[49.7775,26.905],[49.7725,26.916],[49.706,26.9515],[49.691,26.9745],[49.697,26.981],[49.673,26.9945],[49.6805,27.0115],[49.681,27.016],[49.6375,27.0345],[49.667,27.0785],[49.7015,27.086],[49.614,27.068],[49.609,27.085],[49.5765,27.108],[49.581,27.164],[49.6125,27.155],[49.6095,27.258],[49.5385,27.1915],[49.509,27.2465],[49.503,27.3255],[49.567,27.3095],[49.56,27.29],[49.575,27.293],[49.647,27.306],[49.6945,27.302],[49.5335,27.355],[49.457,27.2695],[49.462,27.273],[49.476,27.2555],[49.5,27.228],[49.501,27.168],[49.5195,27.1235],[49.451,27.113],[49.4145,27.1205],[49.44,27.0965],[49.456,27.094],[49.4615,27.081],[49.375,27.116],[49.401,27.156],[49.4145,27.1885],[49.3825,27.1945],[49.358,27.1625],[49.321,27.181],[49.3195,27.2425],[49.3165,27.32],[49.283,27.3405],[49.2175,27.3145],[49.231,27.3615],[49.2715,27.388],[49.2315,27.382],[49.177,27.3965],[49.124,27.404],[49.139,27.4405],[49.189,27.4455],[49.2365,27.429],[49.269,27.433],[49.2985,27.4355],[49.303,27.4765],[49.0965,27.5425],[49.043,27.567],[48.987,27.617],[48.911,27.5775],[48.8945,27.5685],[48.8925,27.6195],[48.8555,27.6255],[48.861,27.6335],[48.8745,27.6385],[48.8635,27.6575],[48.8565,27.6835],[48.8215,27.692],[48.8055,27.74],[48.7945,27.705],[48.8075,27.7875],[48.8265,27.806],[48.808,27.759],[48.8335,27.794],[48.864,27.777],[48.8575,27.752],[48.878,27.7505],[48.8765,27.797],[48.8435,27.861],[48.764,27.939],[48.783,27.9995],[48.7715,27.9765],[48.683,28.0245],[48.616,28.1025],[48.6105,28.14],[48.627,28.207],[48.5205,28.3185],[48.5185,28.409],[48.4835,28.3795],[48.486,28.393],[48.5245,28.418],[48.5015,28.4945],[47.6,28.759],[46.426,29.061],[45.7885,28.9285],[45.572,28.7785],[45.185,28.784],[45.074,28.6775],[45.2065,28.488],[45.3395,28.18],[45.2095,28.0765],[45.1365,27.869],[44.9795,27.6725]]],[[[49.348,27.2125],[49.3495,27.2095],[49.3535,27.21],[49.353,27.215],[49.352,27.2155],[49.357,27.216],[49.363,27.2115],[49.361,27.2105],[49.3605,27.212],[49.36,27.208],[49.359,27.208],[49.3595,27.212],[49.3565,27.211],[49.355,27.2085],[49.356,27.2065],[49.3625,27.2075],[49.364,27.212],[49.3645,27.208],[49.367,27.209],[49.3715,27.2165],[49.3715,27.221],[49.3685,27.228],[49.358,27.23],[49.3585,27.2255],[49.361,27.2245],[49.363,27.22],[49.365,27.2145],[49.365,27.212],[49.3645,27.214],[49.3565,27.218],[49.351,27.217],[49.348,27.2125]]],[[[49.331,27.233],[49.3315,27.232],[49.3345,27.233],[49.3355,27.232],[49.338,27.2375],[49.342,27.2395],[49.345,27.239],[49.349,27.2415],[49.352,27.246],[49.352,27.2575],[49.34,27.255],[49.335,27.2525],[49.335,27.247],[49.332,27.2435],[49.331,27.233]]],[[[49.2835,27.365],[49.284,27.3615],[49.288,27.3585],[49.29,27.3535],[49.2985,27.356],[49.303,27.361],[49.3085,27.364],[49.312,27.363],[49.313,27.3605],[49.3145,27.362],[49.315,27.369],[49.318,27.376],[49.3155,27.384],[49.3105,27.3815],[49.3075,27.382],[49.3055,27.3795],[49.3015,27.38],[49.3025,27.377],[49.3,27.3745],[49.2835,27.365]]],[[[49.21,27.4165],[49.2125,27.4145],[49.216,27.402],[49.216,27.399],[49.2115,27.3955],[49.2115,27.3935],[49.217,27.3955],[49.219,27.393],[49.2265,27.3975],[49.227,27.4155],[49.222,27.42],[49.2185,27.421],[49.214,27.4205],[49.21,27.4165]]]]}},{"type":"Feature","properties":{"region_id":"SA-10","name_en":"Najran Region","name_ar":"منطقة نجران"},"geometry":{"type":"Polygon","coordinates":[[[47.745,19.531],[47.607,19.4935],[47.4495,19.4585],[47.244,19.4335],[46.974,19.3925],[46.636,19.3645],[46.3085,19.336],[46.063,19.312],[45.794,19.294],[45.544,19.272],[45.3695,19.2545],[45.266,19.2535],[45.1765,19.256],[45.009,19.273],[44.9155,19.293],[44.814,19.3335],[44.7635,19.3585],[44.685,19.4115],[44.613,19.4575],[44.5165,19.5125],[44.518,19.492],[44.5125,19.451],[44.514,19.4295],[44.522,19.386],[44.5205,19.3665],[44.5155,19.345],[44.504,19.3245],[44.483,19.3065],[44.3935,19.27],[44.3715,19.2535],[44.358,19.231],[44.3515,19.2095],[44.3535,19.1885],[44.3585,19.1685],[44.373,19.127],[44.391,19.064],[44.396,19.0405],[44.402,18.973],[44.401,18.9335],[44.3975,18.9145],[44.3805,18.8715],[44.369,18.853],[44.353,18.833],[44.334,18.814],[44.2645,18.775],[44.2185,18.7565],[44.1965,18.7505],[44.1295,18.7405],[44.108,18.734],[44.0815,18.719],[44.054,18.69],[44.0455,18.6675],[44.0335,18.628],[44.023,18.6065],[43.9915,18.5655],[43.9705,18.544],[43.901,18.492],[43.8315,18.4335],[43.7535,18.356],[43.664,18.261],[43.6385,18.214],[43.635,18.192],[43.636,18.1685],[43.647,18.126],[43.665,18.079],[43.6705,18.0595],[43.6745,18.04],[43.6765,17.9985],[43.676,17.979],[43.667,17.9135],[43.657,17.873],[43.6545,17.854],[43.6565,17.786],[43.654,17.766],[43.6465,17.7445],[43.6345,17.725],[43.637,17.7045],[43.642,17.685],[43.6585,17.6435],[43.6705,17.6035],[43.6735,17.5805],[43.672,17.56],[43.666,17.5415],[43.618,17.426],[43.6835,17.3665],[43.768,17.3745],[43.789,17.375],[43.806,17.3565],[43.832,17.339],[43.9055,17.3415],[43.9665,17.3305],[44.0115,17.4025],[44.023,17.3915],[44.0495,17.405],[44.0665,17.406],[44.1005,17.366],[44.111,17.3665],[44.131,17.3835],[44.138,17.409],[44.1795,17.414],[44.2085,17.414],[44.227,17.418],[44.366,17.4335],[44.3885,17.435],[44.4665,17.435],[44.5165,17.4215],[44.53,17.4175],[44.532,17.4155],[44.5455,17.4135],[44.5665,17.4075],[44.6495,17.435],[45.074,17.4335],[45.217,17.435],[45.27,17.4075],[45.4,17.3335],[45.748,17.292],[46.1,17.25],[46.3665,17.2335],[46.75,17.2835],[47,16.951],[47.1835,16.95],[47.4665,17.1165],[47.486,17.401],[47.5115,17.7745],[47.583,18.323],[47.6175,18.588],[47.6645,18.9455],[47.7035,19.2535],[47.745,19.531]]]}},{"type":"Feature","properties":{"region_id":"SA-08","name_en":"Northern Borders Region","name_ar":"منطقة الحدود الشمالية"},"geometry":{"type":"Polygon","coordinates":[[[46.051,29.093],[44.398,29.4405],[43.0835,30.4025],[42.0855,31.1115],[39.797,32.0545],[38.4155,31.8585],[37.9485,31.719],[37.961,31.678],[37.9375,31.6505],[37.956,31.5905],[37.9495,31.5455],[37.9565,31.4905],[37.948,31.46],[37.9555,31.402],[37.9605,31.367],[37.933,31.337],[37.9265,31.2715],[37.91,31.2355],[37.892,31.2075],[37.935,31.203],[37.9915,31.2055],[38.056,31.1465],[38.0755,31.17],[38.0905,31.1425],[38.0845,31.096],[38.1175,31.1145],[38.1595,31.0635],[38.179,31.0015],[38.1635,30.9435],[38.194,30.859],[38.2135,30.866],[38.257,30.873],[38.31,30.8975],[38.3825,30.9075],[38.512,30.916],[38.5855,30.932],[38.6805,30.9265],[38.7465,30.924],[38.7755,30.8815],[38.8045,30.9025],[38.9385,30.956],[38.9675,30.9615],[39.0135,30.963],[39.117,30.971],[39.314,30.951],[39.3985,30.894],[39.4615,30.908],[39.501,30.918],[39.562,30.9105],[39.611,30.9055],[39.6495,30.915],[39.7545,30.8545],[39.79,30.86],[39.849,30.8855],[39.897,30.8535],[39.9545,30.831],[40.0135,30.7865],[40.0635,30.749],[40.135,30.734],[40.209,30.76],[40.228,30.7845],[40.28,30.8245],[40.3475,30.813],[40.416,30.7865],[40.4795,30.782],[40.7285,30.742],[40.7955,30.7515],[40.907,30.769],[41.011,30.7615],[41.102,30.7135],[41.122,30.669],[41.1195,30.614],[41.1,30.5535],[41.1275,30.505],[41.156,30.5255],[41.218,30.5835],[41.3175,30.5725],[41.3735,30.57],[41.4285,30.587],[41.464,30.5545],[41.5515,30.5355],[41.624,30.5245],[41.638,30.503],[41.593,30.4555],[41.5695,30.373],[41.6135,30.342],[41.728,30.329],[41.7615,30.302],[41.797,30.258],[41.864,30.181],[41.8955,30.1625],[41.9785,30.0885],[41.9325,30.0595],[41.847,30.043],[41.7695,30.004],[41.749,29.9095],[41.713,29.9265],[41.6045,29.923],[41.5585,29.8995],[41.5215,29.8535],[41.4545,29.8195],[41.402,29.8045],[41.4115,29.7165],[41.414,29.622],[41.417,29.563],[41.4465,29.5265],[41.4625,29.5565],[41.511,29.536],[41.505,29.4435],[41.557,29.335],[41.592,29.302],[41.5885,29.2135],[41.6075,29.1545],[41.5305,29.136],[41.433,29.118],[41.399,29.074],[41.3615,28.977],[41.349,28.873],[41.4975,28.865],[41.5685,28.842],[41.665,28.835],[41.788,28.8265],[41.8995,28.806],[41.94,28.8165],[42.0035,28.8535],[42.039,28.878],[42.085,28.8415],[42.1525,28.8175],[42.224,28.8025],[42.3245,28.777],[42.4375,28.767],[42.5285,28.73],[42.533,28.6775],[42.5675,28.6505],[42.6075,28.611],[42.6735,28.6195],[42.737,28.5895],[42.794,28.558],[42.785,28.513],[42.78,28.479],[42.788,28.4405],[42.833,28.4205],[42.8245,28.3865],[42.8695,28.401],[42.9005,28.4035],[42.9425,28.382],[43.0155,28.357],[43.0595,28.353],[43.109,28.328],[43.1665,28.369],[43.1985,28.389],[43.246,28.405],[43.298,28.423],[43.3235,28.4275],[43.393,28.41],[43.4275,28.433],[43.441,28.373],[43.4715,28.366],[43.477,28.4415],[43.504,28.428],[43.547,28.43],[43.569,28.423],[43.635,28.442],[43.6715,28.46],[43.698,28.43],[43.748,28.4155],[43.781,28.4245],[43.821,28.4165],[43.859,28.4275],[43.9145,28.346],[43.8935,28.3055],[43.895,28.22],[43.9275,28.1095],[43.911,27.97],[43.9365,27.942],[43.964,27.9025],[44.021,27.9165],[44.0665,27.956],[44.2285,27.95],[44.319,27.8895],[44.426,27.8225],[44.519,27.7595],[44.55,27.7335],[44.673,27.5685],[44.7255,27.525],[44.781,27.5605],[44.8515,27.5735],[44.938,27.6185],[44.9835,27.682],[45.0165,27.7265],[45.042,27.7715],[45.107,27.841],[45.1445,27.9015],[45.186,27.977],[45.186,28.041],[45.2145,28.085],[45.217,28.137],[45.2525,28.1415],[45.3315,28.174],[45.352,28.198],[45.321,28.293],[45.29,28.3795],[45.2065,28.488],[45.1235,28.5615],[45.091,28.601],[45.052,28.6635],[45.107,28.7045],[45.1465,28.729],[45.146,28.776],[45.185,28.784],[45.2185,28.7865],[45.325,28.787],[45.4155,28.7905],[45.572,28.7785],[45.6775,28.8025],[45.705,28.873],[45.772,28.888],[45.8325,28.9385],[45.8725,28.974],[45.9795,29.0085],[46.051,29.093]]]}},{"type":"Feature","properties":{"region_id":"SA-06","name_en":"Ha'il Region","name_ar":"منطقة حائل"},"geometry":{"type":"Polygon","coordinates":[[[41.349,28.873],[41.271,28.88],[41.1445,28.8705],[41.08,28.875],[41.0105,28.88],[40.8885,28.8835],[40.8155,28.886],[40.7755,28.8775],[40.701,28.8835],[40.612,28.8865],[40.5695,28.886],[40.531,28.885],[40.4785,28.8495],[40.4245,28.8155],[40.256,28.7505],[40.2085,28.732],[40.161,28.709],[40.126,28.692],[39.8915,28.608],[39.823,28.562],[39.789,28.538],[39.745,28.4675],[39.608,28.3545],[39.5315,28.263],[39.4555,28.187],[39.4165,28.1245],[39.365,28.048],[39.4145,27.9745],[39.553,27.9285],[39.63,27.8965],[39.688,27.872],[39.7635,27.8295],[39.85,27.7375],[39.8965,27.6445],[39.912,27.5895],[39.9185,27.454],[39.963,27.362],[39.983,27.313],[40.013,27.2655],[40.0115,27.2275],[40,27.1295],[39.9725,27.1355],[39.9575,27.1535],[39.908,27.159],[39.887,27.2095],[39.8475,27.23],[39.7855,27.23],[39.752,27.1805],[39.7335,27.12],[39.6005,26.96],[39.551,26.9045],[39.5025,26.8585],[39.4945,26.786],[39.514,26.7525],[39.6025,26.744],[39.6595,26.731],[39.6625,26.6755],[39.7215,26.6325],[39.773,26.5815],[39.799,26.515],[39.828,26.483],[39.886,26.3975],[39.8825,26.294],[39.8995,26.244],[39.9465,26.1795],[39.9605,26.1285],[39.9535,25.9985],[39.959,25.935],[39.9605,25.9015],[39.9535,25.8465],[39.9625,25.7705],[39.971,25.6765],[39.9625,25.5365],[39.9725,25.445],[40.014,25.384],[40.1025,25.347],[40.1805,25.327],[40.2815,25.311],[40.3485,25.316],[40.4305,25.2955],[40.4615,25.3055],[40.4565,25.3825],[40.5075,25.4375],[40.562,25.419],[40.6985,25.4145],[40.749,25.447],[40.7655,25.479],[40.81,25.545],[40.8825,25.5815],[40.9485,25.5695],[41.0635,25.568],[41.1305,25.5125],[41.1945,25.4845],[41.3175,25.555],[41.375,25.6075],[41.4135,25.681],[41.458,25.7355],[41.5355,25.7305],[41.66,25.72],[41.7035,25.758],[41.7275,25.813],[41.8185,25.8825],[41.826,25.9675],[41.878,25.9535],[41.923,25.954],[41.911,25.9995],[41.936,26.067],[41.9645,26.106],[42.019,26.1185],[42.05,26.1575],[42.1065,26.175],[42.1895,26.1885],[42.1985,26.2555],[42.1625,26.3445],[42.203,26.376],[42.2645,26.4525],[42.317,26.4785],[42.358,26.456],[42.35,26.424],[42.3985,26.474],[42.396,26.5075],[42.437,26.5115],[42.544,26.565],[42.592,26.596],[42.68,26.701],[42.714,26.7835],[42.711,26.8225],[42.741,26.8135],[42.778,26.8265],[42.8385,26.8675],[42.8785,26.866],[42.916,26.9085],[42.9685,26.915],[43.0115,26.8775],[43.044,26.9085],[43.1415,26.9865],[43.1795,27.0465],[43.2015,27.0965],[43.2185,27.131],[43.209,27.173],[43.209,27.202],[43.338,27.25],[43.334,27.285],[43.2915,27.294],[43.2655,27.3115],[43.267,27.362],[43.3115,27.4235],[43.3865,27.4455],[43.401,27.4895],[43.4655,27.473],[43.509,27.502],[43.5935,27.5055],[43.694,27.5145],[43.7215,27.565],[43.705,27.7075],[43.7145,27.8485],[43.729,27.9295],[43.755,27.9665],[43.9275,28.1095],[43.8885,28.2335],[43.8935,28.3055],[43.915,28.3345],[43.8795,28.4025],[43.828,28.4285],[43.802,28.41],[43.77,28.427],[43.7415,28.416],[43.698,28.43],[43.6715,28.46],[43.635,28.442],[43.5815,28.4315],[43.5615,28.4195],[43.515,28.419],[43.49,28.4435],[43.47,28.429],[43.465,28.36],[43.4385,28.384],[43.4275,28.433],[43.393,28.41],[43.3335,28.4265],[43.307,28.423],[43.2565,28.4245],[43.2185,28.3855],[43.1885,28.3855],[43.13,28.35],[43.105,28.327],[43.0595,28.353],[43.0155,28.357],[42.9505,28.379],[42.926,28.3845],[42.8835,28.407],[42.8425,28.3835],[42.8195,28.392],[42.8325,28.425],[42.7795,28.447],[42.78,28.479],[42.785,28.513],[42.799,28.546],[42.754,28.5855],[42.682,28.6155],[42.6455,28.6085],[42.5795,28.625],[42.562,28.661],[42.53,28.683],[42.5285,28.73],[42.4375,28.767],[42.3395,28.776],[42.255,28.7905],[42.182,28.8115],[42.1275,28.8235],[42.0715,28.8645],[42.039,28.878],[41.986,28.84],[41.94,28.8165],[41.8995,28.806],[41.8155,28.8265],[41.7165,28.835],[41.591,28.8425],[41.521,28.851],[41.483,28.8695],[41.349,28.873]]]}},{"type":"Feature","properties":{"region_id":"SA-01","name_en":"Riyadh Region","name_ar":"منطقة الرياض"},"geometry":{"type":"Polygon","coordinates":[[[44.9795,27.6725],[44.938,27.6185],[44.9185,27.5955],[44.8515,27.5735],[44.8155,27.5735],[44.7535,27.5405],[44.7255,27.525],[44.7435,27.502],[44.774,27.4535],[44.8155,27.401],[44.844,27.345],[44.8915,27.224],[44.878,27.0855],[44.9025,26.9405],[44.882,26.9325],[44.8095,26.9885],[44.7075,27.0445],[44.6385,27.0315],[44.5615,27.0175],[44.5,27.0115],[44.415,26.962],[44.409,26.8935],[44.394,26.7865],[44.3915,26.6905],[44.4065,26.5485],[44.4485,26.332],[44.463,26.2705],[44.491,26.176],[44.5065,26.0685],[44.5465,26.001],[44.56,25.9555],[44.596,25.876],[44.6275,25.819],[44.6585,25.783],[44.7685,25.7225],[44.7895,25.6725],[44.7585,25.585],[44.717,25.506],[44.569,25.5685],[44.4565,25.6105],[44.4285,25.583],[44.3975,25.542],[44.2975,25.505],[44.2135,25.482],[44.085,25.4585],[44.0545,25.4475],[44.013,25.395],[43.9165,25.3375],[43.7545,25.3195],[43.724,25.3005],[43.7305,25.2625],[43.7305,25.2195],[43.6885,25.184],[43.5765,25.168],[43.5285,25.205],[43.4805,25.2135],[43.439,25.1885],[43.4155,25.1595],[43.2765,25.0275],[43.2435,25.011],[43.17,25.0165],[43.125,24.987],[43.0985,24.917],[43.1375,24.915],[43.1805,24.9365],[43.2195,24.92],[43.2075,24.8865],[43.151,24.856],[43.115,24.8415],[43.1335,24.8105],[43.159,24.789],[43.108,24.7725],[43.104,24.7365],[43.1615,24.747],[43.208,24.7415],[43.2025,24.7055],[43.145,24.608],[43.067,24.5165],[43.0285,24.5265],[42.9655,24.544],[42.8585,24.5335],[42.8245,24.5105],[42.815,24.458],[42.7325,24.4425],[42.5635,24.4455],[42.533,24.484],[42.497,24.552],[42.4465,24.6745],[42.401,24.708],[42.2535,24.704],[42.1615,24.713],[42.099,24.579],[42.0845,24.528],[42.056,24.4825],[41.999,24.4155],[42.0215,24.3405],[42.0025,24.27],[41.984,24.1515],[41.9815,24.0385],[41.9885,23.9565],[41.9795,23.9165],[41.9765,23.789],[42.004,23.7495],[42.088,23.7015],[42.114,23.6565],[42.1375,23.5505],[42.1985,23.424],[42.2135,23.315],[42.2545,23.207],[42.2865,23.138],[42.3745,22.9705],[42.4405,22.9335],[42.5065,22.9215],[42.6005,22.926],[42.6915,22.9235],[42.8915,22.9065],[42.9605,22.887],[43.0015,22.8595],[43.0145,22.817],[42.9865,22.7365],[42.982,22.634],[42.9835,22.5935],[43.0175,22.5515],[43.125,22.517],[43.2195,22.54],[43.3095,22.5555],[43.383,22.5395],[43.476,22.519],[43.485,22.4765],[43.46,22.373],[43.4595,22.288],[43.487,22.108],[43.4945,22.065],[43.509,21.956],[43.4895,21.893],[43.463,21.8555],[43.4305,21.819],[43.422,21.779],[43.431,21.713],[43.4305,21.5685],[43.3875,21.423],[43.391,21.3615],[43.478,21.2555],[43.5415,21.1685],[43.6415,21.0145],[43.692,20.9615],[43.7725,20.8915],[43.8345,20.8395],[43.924,20.705],[44.0285,20.6065],[44.059,20.559],[44.0645,20.5185],[44.0565,20.4785],[44.037,20.441],[43.9595,20.3115],[43.942,20.226],[43.924,20.1445],[43.9305,20.1005],[44.0105,20.0195],[44.0725,19.911],[44.124,19.8445],[44.271,19.713],[44.415,19.5945],[44.5165,19.5125],[44.685,19.4115],[44.814,19.3335],[45.009,19.273],[45.266,19.2535],[45.794,19.294],[46.3085,19.336],[46.974,19.3925],[47.4495,19.4585],[47.745,19.531],[47.8985,20.7015],[48.0035,21.4135],[48.2485,23.301],[48.3095,23.677],[48.2705,24.068],[48.1845,24.222],[48.0085,24.389],[47.7845,24.579],[47.5955,24.687],[47.4965,24.7825],[47.477,24.8805],[47.4745,25.3715],[47.4825,25.4965],[47.4815,25.6065],[47.4855,25.719],[47.474,26.0685],[47.4615,26.1985],[47.446,26.2445],[47.408,26.2805],[47.292,26.328],[47.1285,26.386],[47.0605,26.403],[47.03,26.448],[46.9965,26.4855],[46.8935,26.574],[46.8305,26.627],[46.7855,26.633],[46.6325,26.6055],[46.5165,26.639],[46.381,26.7305],[46.273,26.799],[46.165,26.838],[46.072,26.8435],[45.9335,26.85],[45.871,26.8855],[45.794,26.948],[45.7135,27.0385],[45.6715,27.068],[45.5265,27.0855],[45.409,27.147],[45.311,27.193],[45.2245,27.243],[45.1885,27.283],[45.1605,27.394],[45.129,27.438],[45.056,27.609],[45.0365,27.639],[44.9795,27.6725]]]}},{"type":"Feature","properties":{"region_id":"SA-14","name_en":"'Asir Region","name_ar":"منطقة عسير"},"geometry":{"type":"Polygon","coordinates":[[[44.5165,19.5125],[44.4965,19.526],[44.415,19.5945],[44.3295,19.6615],[44.2295,19.7545],[44.124,19.8445],[44.0725,19.911],[44.0105,20.0195],[43.9905,20.042],[43.9305,20.1005],[43.9215,20.1235],[43.937,20.207],[43.9445,20.246],[43.9595,20.3115],[43.9885,20.375],[44.037,20.441],[44.0565,20.4785],[44.063,20.497],[44.064,20.538],[44.0485,20.5845],[44.0285,20.6065],[43.9665,20.658],[43.924,20.705],[43.8345,20.8395],[43.7725,20.8915],[43.7125,20.9455],[43.6675,20.976],[43.5985,20.956],[43.551,20.936],[43.4805,20.8935],[43.431,20.8545],[43.385,20.8335],[43.362,20.832],[43.3195,20.842],[43.298,20.852],[43.2335,20.869],[43.168,20.862],[43.144,20.8535],[43.0765,20.821],[43.0555,20.8175],[42.9695,20.819],[42.92,20.802],[42.897,20.784],[42.844,20.7275],[42.821,20.7095],[42.755,20.685],[42.726,20.674],[42.6345,20.626],[42.564,20.57],[42.447,20.467],[42.3415,20.373],[42.318,20.358],[42.2745,20.342],[42.2315,20.3425],[42.208,20.3485],[42.1675,20.3765],[42.151,20.397],[42.102,20.491],[42.05,20.598],[42.0365,20.6195],[42.021,20.591],[42.0095,20.568],[41.971,20.4705],[41.9695,20.4495],[41.9965,20.41],[42.036,20.374],[42.0415,20.352],[42.031,20.3105],[42.009,20.2905],[41.9115,20.229],[41.864,20.2],[41.84,20.182],[41.8155,20.133],[41.813,20.111],[41.822,20.0355],[41.8135,20.016],[41.753,19.9115],[41.725,19.853],[41.7145,19.8315],[41.6985,19.797],[41.742,19.817],[41.7865,19.8175],[41.8285,19.8055],[41.849,19.784],[41.8685,19.7395],[41.8685,19.7205],[41.8435,19.6175],[41.8285,19.5505],[41.8305,19.53],[41.847,19.4885],[41.8795,19.447],[41.894,19.408],[41.892,19.381],[41.861,19.302],[41.849,19.2615],[41.835,19.242],[41.791,19.2215],[41.749,19.2195],[41.6535,19.2335],[41.5885,19.223],[41.544,19.198],[41.476,19.1455],[41.454,19.1435],[41.417,19.178],[41.397,19.1955],[41.3885,19.1545],[41.3915,19.0895],[41.3865,19.0505],[41.383,18.9195],[41.3885,18.8785],[41.411,18.816],[41.45,18.787],[41.472,18.7835],[41.58,18.788],[41.6235,18.7845],[41.7075,18.7625],[41.751,18.6785],[41.7675,18.616],[41.8105,18.511],[41.814,18.4915],[41.806,18.4365],[41.8,18.418],[41.7815,18.3555],[41.792,18.321],[41.836,18.323],[41.9,18.327],[41.9195,18.3185],[41.9395,18.278],[41.9195,18.158],[41.913,18.0965],[41.921,18.055],[41.942,18.042],[42.028,18.0545],[42.05,18.055],[42.0905,18.048],[42.1215,18.0105],[42.1335,17.9715],[42.1465,17.9305],[42.1675,17.9125],[42.2325,17.906],[42.3665,17.9075],[42.388,17.906],[42.427,17.8885],[42.445,17.867],[42.4755,17.7835],[42.5105,17.7475],[42.5295,17.7355],[42.5655,17.6965],[42.5855,17.6755],[42.6295,17.658],[42.6495,17.6565],[42.6865,17.68],[42.735,17.868],[42.745,17.8865],[42.7875,17.944],[42.81,17.9605],[42.8755,17.9975],[42.9175,18.0105],[42.938,18],[42.936,17.8765],[42.9425,17.8565],[43.026,17.819],[43.047,17.806],[43.0815,17.7625],[43.1085,17.6985],[43.1235,17.677],[43.1655,17.6555],[43.2085,17.6515],[43.245,17.6245],[43.321,17.5325],[43.336,17.54],[43.3755,17.544],[43.3795,17.5555],[43.4195,17.566],[43.4455,17.55],[43.4645,17.5525],[43.4955,17.527],[43.506,17.524],[43.527,17.5145],[43.5665,17.4835],[43.666,17.5415],[43.6735,17.5805],[43.6705,17.6035],[43.642,17.685],[43.637,17.7045],[43.6465,17.7445],[43.6565,17.786],[43.6545,17.854],[43.667,17.9135],[43.676,17.979],[43.6745,18.04],[43.6705,18.0595],[43.647,18.126],[43.635,18.192],[43.6385,18.214],[43.7535,18.356],[43.8315,18.4335],[43.9705,18.544],[44.023,18.6065],[44.0335,18.628],[44.054,18.69],[44.0815,18.719],[44.1295,18.7405],[44.2185,18.7565],[44.2645,18.775],[44.353,18.833],[44.369,18.853],[44.3975,18.9145],[44.401,18.9335],[44.396,19.0405],[44.373,19.127],[44.3585,19.1685],[44.3515,19.2095],[44.358,19.231],[44.3935,19.27],[44.504,19.3245],[44.5155,19.345],[44.522,19.386],[44.514,19.4295],[44.518,19.492],[44.5165,19.5125]]]}},{"type":"Feature","properties":{"region_id":"SA-02","name_en":"Makkah Region","name_ar":"منطقة مكة المكرمة"},"geometry":{"type":"MultiPolygon","coordinates":[[[[39.0905,22.317],[39.0915,22.3085],[39.0935,22.306],[39.094,22.303],[39.095,22.303],[39.0945,22.3045],[39.096,22.303],[39.0975,22.303],[39.098,22.304],[39.096,22.303],[39.0945,22.3045],[39.098,22.3045],[39.099,22.32],[39.0975,22.322],[39.097,22.3195],[39.095,22.32],[39.096,22.3225],[39.0935,22.3275],[39.0915,22.3265],[39.0905,22.317]]],[[[38.9205,22.898],[38.9215,22.895],[38.922,22.8965],[38.923,22.8965],[38.922,22.894],[38.925,22.8905],[38.925,22.886],[38.9285,22.8825],[38.938,22.8785],[38.943,22.88],[38.9405,22.885],[38.939,22.8855],[38.94,22.8875],[38.9375,22.888],[38.9375,22.8895],[38.9265,22.891],[38.927,22.893],[38.924,22.8945],[38.9235,22.8975],[38.9225,22.8975],[38.9235,22.9005],[38.9255,22.9],[38.9245,22.9025],[38.9215,22.9025],[38.9225,22.9005],[38.921,22.901],[38.9205,22.898]]],[[[38.843,22.9565],[38.8475,22.948],[38.854,22.9455],[38.8565,22.942],[38.8625,22.9425],[38.854,22.949],[38.851,22.9545],[38.848,22.9555],[38.846,22.958],[38.843,22.9565]]],[[[38.7745,23.1685],[38.776,23.167],[38.775,23.1615],[38.777,23.1585],[38.781,23.1575],[38.782,23.1535],[38.7835,23.155],[38.7835,23.15],[38.785,23.1505],[38.786,23.1475],[38.787,23.1475],[38.789,23.149],[38.788,23.1555],[38.7915,23.1575],[38.7895,23.162],[38.791,23.168],[38.789,23.172],[38.786,23.174],[38.787,23.175],[38.7865,23.179],[38.7815,23.181],[38.7795,23.179],[38.7745,23.1685]]],[[[40.888,19.2875],[40.8895,19.273],[40.895,19.2705],[40.8975,19.2725],[40.896,19.2745],[40.8995,19.276],[40.896,19.277],[40.894,19.28],[40.898,19.2855],[40.8975,19.287],[40.8965,19.2845],[40.894,19.284],[40.8905,19.29],[40.889,19.29],[40.888,19.2875]]],[[[40.73,19.6795],[40.732,19.681],[40.732,19.6835],[40.735,19.684],[40.7365,19.6875],[40.7415,19.682],[40.7505,19.682],[40.7525,19.679],[40.7585,19.6805],[40.747,19.687],[40.7365,19.689],[40.735,19.686],[40.731,19.6835],[40.73,19.6795]]],[[[40.199,20.166],[40.2045,20.1625],[40.223,20.1585],[40.227,20.1585],[40.228,20.1615],[40.2215,20.164],[40.217,20.163],[40.2165,20.165],[40.2195,20.1665],[40.2165,20.166],[40.2165,20.167],[40.214,20.165],[40.2155,20.165],[40.2155,20.1635],[40.214,20.1635],[40.2125,20.168],[40.211,20.168],[40.2115,20.166],[40.2085,20.169],[40.199,20.166]]],[[[39.996,20.259],[39.9995,20.2525],[40.011,20.243],[40.027,20.2345],[40.033,20.233],[40.059,20.235],[40.0705,20.2335],[40.0765,20.2305],[40.0795,20.227],[40.089,20.224],[40.0975,20.219],[40.1185,20.2025],[40.13,20.199],[40.1405,20.191],[40.1585,20.184],[40.163,20.18],[40.179,20.1715],[40.1925,20.1665],[40.197,20.167],[40.1925,20.173],[40.1895,20.1735],[40.1885,20.177],[40.185,20.1765],[40.183,20.179],[40.1685,20.184],[40.151,20.196],[40.1495,20.1955],[40.126,20.2095],[40.126,20.2115],[40.124,20.2115],[40.12,20.2155],[40.1145,20.217],[40.0895,20.2305],[40.082,20.232],[40.0725,20.236],[40.062,20.239],[40.0505,20.239],[40.052,20.24],[40.0465,20.242],[40.04,20.2405],[40.034,20.243],[40.019,20.2455],[40.006,20.2525],[40.003,20.2585],[39.996,20.259]]],[[[41.9865,23.949],[41.761,23.8155],[41.307,23.433],[41.424,23.1795],[40.793,22.753],[40.353,22.582],[40.0795,22.696],[39.9535,23.028],[39.473,23.0565],[39.159,23.197],[38.67,23.3845],[38.6715,23.3485],[38.69,23.3305],[38.689,23.301],[38.7095,23.272],[38.756,23.1895],[38.7875,23.1755],[38.809,23.114],[38.7985,23.0085],[38.8275,22.996],[38.8675,22.9795],[38.9235,22.9315],[38.9705,22.8635],[38.9435,22.848],[38.925,22.8655],[38.87,22.9365],[38.8665,22.9165],[38.9665,22.772],[38.994,22.755],[39.009,22.7365],[38.9955,22.7135],[39.0275,22.668],[39.0285,22.6585],[39.0535,22.6135],[39.081,22.568],[39.081,22.5165],[39.078,22.397],[39.081,22.393],[39.1005,22.367],[39.1145,22.408],[39.1275,22.371],[39.099,22.347],[39.1065,22.339],[39.1025,22.3085],[39.096,22.2875],[39.086,22.263],[39.0485,22.215],[39.0375,22.177],[39.023,22.087],[39.048,22.1545],[39.062,22.1475],[39.053,22.0645],[39.0185,22.066],[39.0185,22.0095],[38.9805,21.982],[38.9655,21.987],[38.9785,22.023],[38.964,22.0245],[38.941,22.0235],[38.938,21.9805],[38.967,21.952],[38.9575,21.94],[38.96,21.9215],[38.9475,21.918],[38.9655,21.8875],[39.001,21.8345],[39.013,21.8225],[39.017,21.8295],[39.036,21.8395],[39.027,21.8315],[39.0205,21.825],[39.037,21.8025],[39.053,21.7735],[39.053,21.7555],[39.0625,21.745],[39.067,21.736],[39.073,21.7275],[39.0845,21.711],[39.107,21.724],[39.1195,21.75],[39.1365,21.766],[39.132,21.7475],[39.0885,21.7055],[39.09,21.698],[39.093,21.6835],[39.0985,21.667],[39.0965,21.6605],[39.105,21.624],[39.1145,21.5455],[39.1275,21.528],[39.133,21.5165],[39.158,21.509],[39.1685,21.4975],[39.169,21.4865],[39.162,21.4825],[39.163,21.4445],[39.1725,21.4375],[39.174,21.426],[39.1855,21.419],[39.183,21.4025],[39.176,21.379],[39.1295,21.3485],[39.1245,21.3485],[39.1175,21.342],[39.106,21.326],[39.1435,21.2355],[39.17,21.1825],[39.1775,21.139],[39.2075,21.0965],[39.24,21.065],[39.264,21.0275],[39.308,20.931],[39.3545,20.9145],[39.3615,20.8865],[39.421,20.827],[39.4535,20.8195],[39.435,20.812],[39.487,20.728],[39.456,20.7725],[39.4865,20.772],[39.4955,20.7545],[39.5035,20.6975],[39.526,20.6685],[39.547,20.628],[39.5525,20.62],[39.5945,20.5875],[39.6115,20.5645],[39.5935,20.555],[39.613,20.5315],[39.6475,20.508],[39.67,20.47],[39.7025,20.424],[39.7965,20.346],[39.9475,20.2615],[39.9265,20.283],[39.9175,20.301],[39.9755,20.28],[40.0085,20.2805],[40.112,20.273],[40.154,20.21],[40.2295,20.1925],[40.25,20.157],[40.2705,20.12],[40.3375,20.083],[40.394,20.063],[40.426,20.0375],[40.507,19.982],[40.547,19.9245],[40.5885,19.85],[40.626,19.7965],[40.6585,19.761],[40.673,19.757],[40.6765,19.7835],[40.756,19.775],[40.7965,19.708],[40.803,19.6375],[40.7855,19.619],[40.8355,19.567],[40.928,19.5245],[40.954,19.445],[40.9565,19.351],[41.014,19.2965],[41.0495,19.2475],[41.0485,19.187],[41.069,19.1405],[41.0735,19.12],[41.124,19.102],[41.1585,19.0245],[41.1475,18.9945],[41.1365,18.9675],[41.1505,18.931],[41.17,18.876],[41.198,18.858],[41.2405,18.85],[41.2335,18.797],[41.2085,18.7075],[41.2525,18.6385],[41.2645,18.6055],[41.28,18.5955],[41.297,18.5855],[41.3295,18.585],[41.3665,18.5585],[41.4175,18.4735],[41.434,18.4635],[41.4425,18.4425],[41.442,18.3955],[41.479,18.3165],[41.4905,18.2965],[41.508,18.2805],[41.5125,18.2795],[41.491,18.234],[41.5005,18.235],[41.529,18.2345],[41.543,18.1965],[41.5495,18.174],[41.578,18.1405],[41.6225,18.1815],[41.8105,18.511],[41.4005,18.8375],[41.5215,19.1785],[41.892,19.381],[41.849,19.784],[41.482,19.7465],[41.19,19.377],[40.969,19.7225],[40.793,20.065],[41.1755,20.3445],[41.2845,20.7565],[41.5195,20.5655],[42.032,20.6245],[42.318,20.358],[42.897,20.784],[43.3195,20.842],[43.6125,21.0605],[43.422,21.779],[43.4715,22.2215],[43.2435,22.548],[43.0145,22.817],[42.4615,22.9265],[42.146,23.5285],[41.9865,23.949]]]]}},{"type":"Feature","properties":{"region_id":"SA-07","name_en":"Tabuk Region","name_ar":"منطقة تبوك"},"geometry":{"type":"MultiPolygon","coordinates":[[[[35.125,27.7935],[35.126,27.7895],[35.1365,27.781],[35.144,27.771],[35.1465,27.7715],[35.144,27.7735],[35.1465,27.773],[35.1465,27.775],[35.14,27.7875],[35.133,27.7885],[35.125,27.7935]]],[[[35.1835,27.9705],[35.186,27.9565],[35.1945,27.9465],[35.2,27.9445],[35.202,27.9415],[35.209,27.9375],[35.225,27.938],[35.2235,27.94],[35.2165,27.9395],[35.213,27.941],[35.2075,27.9525],[35.2035,27.9535],[35.2,27.9595],[35.1985,27.963],[35.2005,27.9695],[35.1925,27.9715],[35.1895,27.9765],[35.1835,27.974],[35.1835,27.9705]]],[[[34.652,27.9245],[34.657,27.9215],[34.669,27.9215],[34.668,27.924],[34.6725,27.9255],[34.6735,27.9275],[34.6705,27.937],[34.6705,27.942],[34.6745,27.943],[34.6815,27.9425],[34.6825,27.9435],[34.6855,27.943],[34.686,27.9395],[34.6965,27.9305],[34.697,27.9245],[34.6915,27.9215],[34.696,27.916],[34.699,27.9165],[34.7025,27.914],[34.7035,27.9055],[34.707,27.903],[34.707,27.905],[34.7125,27.908],[34.7165,27.908],[34.718,27.9065],[34.7175,27.908],[34.7205,27.9105],[34.7285,27.914],[34.733,27.9135],[34.74,27.9215],[34.7355,27.929],[34.7355,27.931],[34.737,27.932],[34.7355,27.935],[34.7325,27.936],[34.728,27.941],[34.7245,27.9405],[34.7245,27.9475],[34.7225,27.9445],[34.719,27.945],[34.721,27.9495],[34.717,27.954],[34.7055,27.9585],[34.6915,27.959],[34.687,27.9575],[34.685,27.959],[34.684,27.956],[34.674,27.9505],[34.659,27.947],[34.6605,27.946],[34.6575,27.9415],[34.668,27.9385],[34.668,27.9365],[34.661,27.9285],[34.652,27.9245]]],[[[34.4945,28.001],[34.4985,27.9905],[34.5,27.968],[34.5055,27.958],[34.5025,27.9455],[34.515,27.938],[34.527,27.9375],[34.532,27.9255],[34.542,27.9205],[34.553,27.912],[34.5685,27.912],[34.586,27.916],[34.5945,27.9125],[34.6005,27.9145],[34.6035,27.917],[34.62,27.9195],[34.6225,27.9215],[34.623,27.927],[34.619,27.933],[34.611,27.9355],[34.6035,27.9415],[34.5895,27.947],[34.589,27.9495],[34.586,27.952],[34.5865,27.955],[34.5845,27.957],[34.5865,27.959],[34.587,27.964],[34.59,27.9635],[34.589,27.969],[34.583,27.9665],[34.573,27.968],[34.5695,27.9705],[34.56,27.969],[34.558,27.9655],[34.5495,27.9625],[34.538,27.9635],[34.518,27.9685],[34.5125,27.9755],[34.503,27.981],[34.5015,27.983],[34.5015,27.9875],[34.503,27.9925],[34.505,27.992],[34.5055,27.99],[34.5095,27.989],[34.5105,27.986],[34.5145,27.9835],[34.539,27.994],[34.5475,27.991],[34.5515,27.993],[34.552,28.0005],[34.5435,28.0065],[34.543,28.0105],[34.539,28.0125],[34.516,28.014],[34.5155,28.0125],[34.513,28.0105],[34.5085,28.01],[34.5055,28.0085],[34.504,28.0005],[34.4945,28.001]]],[[[35.0235,28.0605],[35.026,28.0515],[35.033,28.049],[35.037,28.049],[35.049,28.052],[35.044,28.0535],[35.043,28.0585],[35.0385,28.063],[35.035,28.0695],[35.0305,28.0715],[35.0265,28.071],[35.0235,28.0605]]],[[[34.7045,28.078],[34.7175,28.0795],[34.725,28.0765],[34.73,28.072],[34.732,28.068],[34.731,28.0625],[34.734,28.061],[34.732,28.0735],[34.729,28.079],[34.725,28.0815],[34.7215,28.0815],[34.721,28.083],[34.721,28.082],[34.7115,28.0815],[34.7045,28.078]]],[[[36.3595,26.186],[36.3605,26.1845],[36.366,26.183],[36.368,26.18],[36.3715,26.179],[36.369,26.179],[36.3715,26.178],[36.373,26.1785],[36.381,26.1745],[36.3845,26.175],[36.385,26.1765],[36.378,26.182],[36.365,26.1865],[36.3595,26.186]]],[[[35.998,26.915],[35.9985,26.912],[36.0025,26.9095],[36.008,26.8995],[36.0135,26.8935],[36.0195,26.8925],[36.023,26.8945],[36.0255,26.902],[36.028,26.903],[36.0265,26.906],[36.019,26.9075],[36.015,26.912],[36.009,26.915],[36.0055,26.9115],[36.003,26.9115],[35.998,26.915]]],[[[35.7495,27.127],[35.752,27.126],[35.7555,27.1175],[35.7575,27.105],[35.769,27.0955],[35.7735,27.089],[35.775,27.082],[35.779,27.0825],[35.7825,27.079],[35.7845,27.0835],[35.7835,27.086],[35.7775,27.0855],[35.776,27.087],[35.778,27.095],[35.774,27.102],[35.774,27.105],[35.773,27.104],[35.7705,27.1045],[35.773,27.109],[35.772,27.1125],[35.7585,27.1245],[35.753,27.1335],[35.7495,27.13],[35.7495,27.127]]],[[[37.1815,24.7945],[37.1885,24.7815],[37.1935,24.777],[37.195,24.7775],[37.1985,24.775],[37.197,24.7825],[37.214,24.79],[37.2165,24.7925],[37.216,24.794],[37.2125,24.793],[37.211,24.7935],[37.212,24.7945],[37.208,24.795],[37.205,24.7975],[37.2005,24.7975],[37.2,24.8005],[37.197,24.7995],[37.193,24.8],[37.1875,24.796],[37.1815,24.796],[37.1815,24.7945]]],[[[37.0655,24.9575],[37.0715,24.9635],[37.08,24.9625],[37.084,24.958],[37.0905,24.955],[37.0945,24.9555],[37.1035,24.949],[37.1085,24.9475],[37.1115,24.949],[37.114,24.958],[37.1095,24.965],[37.1025,24.9685],[37.0945,24.9785],[37.086,24.9835],[37.0745,24.987],[37.071,24.9855],[37.068,24.977],[37.0685,24.973],[37.066,24.965],[37.068,24.9645],[37.0685,24.9625],[37.0655,24.9575]]],[[[36.885,25.3825],[36.8875,25.377],[36.891,25.3615],[36.908,25.3585],[36.91,25.3615],[36.9105,25.3665],[36.907,25.368],[36.9075,25.367],[36.9025,25.367],[36.901,25.3655],[36.9015,25.3695],[36.8985,25.3745],[36.898,25.3765],[36.9005,25.376],[36.8995,25.3805],[36.8915,25.3855],[36.8945,25.385],[36.893,25.3865],[36.8865,25.3855],[36.885,25.3825]]],[[[36.848,25.4205],[36.849,25.4185],[36.852,25.418],[36.852,25.409],[36.856,25.408],[36.863,25.401],[36.8655,25.4015],[36.8795,25.3925],[36.8895,25.395],[36.8925,25.3935],[36.894,25.3965],[36.8945,25.3955],[36.897,25.3955],[36.8965,25.3995],[36.893,25.397],[36.89,25.3985],[36.89,25.4025],[36.8875,25.405],[36.887,25.4075],[36.8795,25.4125],[36.873,25.414],[36.867,25.418],[36.8605,25.418],[36.8545,25.42],[36.8555,25.4215],[36.8535,25.4195],[36.8505,25.42],[36.8525,25.4225],[36.8505,25.422],[36.85,25.4195],[36.8495,25.422],[36.848,25.4205]]],[[[36.967,25.4715],[36.9675,25.47],[36.975,25.4705],[36.9765,25.469],[36.9755,25.4685],[36.978,25.466],[36.978,25.468],[36.9795,25.468],[36.9805,25.466],[36.983,25.466],[36.986,25.463],[36.9865,25.4605],[36.9845,25.4605],[36.9855,25.4595],[36.9765,25.4585],[36.9765,25.4565],[36.9745,25.4565],[36.976,25.4545],[36.976,25.4465],[36.9745,25.4465],[36.9745,25.444],[36.977,25.4445],[36.978,25.4405],[36.9825,25.434],[36.9875,25.441],[36.989,25.4365],[37.008,25.4345],[37.011,25.429],[37.0125,25.4305],[37.011,25.4255],[37.009,25.425],[37.0135,25.425],[37.0125,25.426],[37.0145,25.4255],[37.014,25.4265],[37.0165,25.4255],[37.019,25.4265],[37.019,25.429],[37.0235,25.4305],[37.0235,25.446],[37.0165,25.447],[37.006,25.445],[36.996,25.4585],[36.996,25.4615],[36.999,25.466],[36.995,25.4665],[36.996,25.464],[36.9945,25.464],[36.989,25.4735],[36.982,25.4745],[36.982,25.473],[36.982,25.475],[36.9805,25.4755],[36.9725,25.4765],[36.9685,25.475],[36.967,25.4715]]],[[[36.94,25.4975],[36.942,25.496],[36.941,25.4975],[36.948,25.4965],[36.958,25.498],[36.975,25.492],[36.9765,25.494],[36.9805,25.494],[36.9835,25.492],[36.986,25.493],[36.983,25.497],[36.979,25.496],[36.9775,25.4975],[36.9755,25.5025],[36.9735,25.501],[36.974,25.498],[36.9715,25.499],[36.9705,25.5025],[36.969,25.502],[36.9685,25.5095],[36.954,25.513],[36.9525,25.515],[36.9435,25.509],[36.94,25.4975]]],[[[36.9485,25.5425],[36.9535,25.5295],[36.9555,25.5295],[36.96,25.5255],[36.9655,25.526],[36.9625,25.528],[36.962,25.532],[36.96,25.533],[36.958,25.5375],[36.953,25.5425],[36.9485,25.5425]]],[[[36.8275,25.546],[36.8405,25.5345],[36.843,25.537],[36.848,25.5375],[36.85,25.545],[36.8485,25.546],[36.853,25.5445],[36.852,25.5415],[36.863,25.543],[36.865,25.546],[36.8635,25.5495],[36.8615,25.5475],[36.861,25.545],[36.86,25.5455],[36.861,25.5505],[36.863,25.5505],[36.8615,25.552],[36.8625,25.553],[36.8635,25.5515],[36.867,25.5555],[36.87,25.5565],[36.8645,25.557],[36.8605,25.561],[36.858,25.5615],[36.8555,25.5685],[36.851,25.572],[36.848,25.5715],[36.847,25.57],[36.8405,25.5705],[36.8335,25.5625],[36.829,25.5515],[36.83,25.5475],[36.8275,25.546]]],[[[36.9075,25.5975],[36.9145,25.5855],[36.919,25.583],[36.9225,25.578],[36.9245,25.58],[36.923,25.5835],[36.9295,25.594],[36.924,25.597],[36.9235,25.596],[36.92,25.5965],[36.9175,25.6045],[36.912,25.603],[36.9105,25.599],[36.9095,25.6015],[36.9075,25.6005],[36.9075,25.5975]]],[[[36.482,25.6445],[36.4865,25.641],[36.4875,25.635],[36.4945,25.6305],[36.4965,25.6225],[36.5075,25.6135],[36.519,25.6135],[36.5265,25.616],[36.532,25.6155],[36.5405,25.62],[36.543,25.6235],[36.545,25.622],[36.547,25.625],[36.544,25.624],[36.545,25.626],[36.5425,25.6295],[36.543,25.635],[36.5415,25.631],[36.5315,25.628],[36.528,25.633],[36.5205,25.6355],[36.519,25.6435],[36.521,25.647],[36.5175,25.6495],[36.515,25.6495],[36.5125,25.6465],[36.514,25.6415],[36.5155,25.641],[36.513,25.642],[36.5125,25.64],[36.514,25.64],[36.512,25.6375],[36.5105,25.636],[36.508,25.6365],[36.5075,25.6375],[36.51,25.64],[36.51,25.6415],[36.5055,25.642],[36.502,25.646],[36.511,25.6465],[36.508,25.649],[36.5085,25.651],[36.51,25.649],[36.512,25.6495],[36.5125,25.657],[36.5095,25.6625],[36.4975,25.6625],[36.4865,25.6535],[36.482,25.6445]]],[[[36.5555,25.7305],[36.5575,25.728],[36.556,25.7265],[36.557,25.724],[36.5635,25.7195],[36.5685,25.7115],[36.5745,25.7075],[36.5775,25.7015],[36.5835,25.6985],[36.5915,25.7015],[36.5865,25.705],[36.5825,25.7045],[36.575,25.71],[36.574,25.7135],[36.571,25.7145],[36.5715,25.716],[36.569,25.718],[36.568,25.721],[36.571,25.725],[36.569,25.724],[36.563,25.7285],[36.566,25.7285],[36.564,25.731],[36.5665,25.73],[36.5695,25.7285],[36.5695,25.7255],[36.5715,25.7255],[36.5715,25.728],[36.5735,25.7285],[36.5745,25.7355],[36.5825,25.7395],[36.5805,25.744],[36.5825,25.7485],[36.5775,25.7495],[36.5725,25.748],[36.5685,25.743],[36.5685,25.7405],[36.5645,25.7385],[36.562,25.732],[36.5555,25.7305]]],[[[36.904,25.5445],[36.905,25.5435],[36.9075,25.5445],[36.916,25.544],[36.919,25.5425],[36.9215,25.5395],[36.923,25.523],[36.924,25.522],[36.934,25.523],[36.9285,25.532],[36.925,25.5465],[36.92,25.551],[36.917,25.5595],[36.9105,25.5675],[36.91,25.5665],[36.91,25.569],[36.907,25.5665],[36.907,25.565],[36.908,25.5655],[36.9095,25.564],[36.907,25.5575],[36.909,25.557],[36.909,25.5535],[36.9065,25.551],[36.908,25.549],[36.904,25.5445]]],[[[36.537,25.772],[36.5415,25.756],[36.541,25.7355],[36.547,25.7295],[36.551,25.727],[36.5525,25.734],[36.549,25.741],[36.551,25.7455],[36.547,25.758],[36.5455,25.778],[36.5405,25.78],[36.537,25.772]]],[[[39.791,28.545],[39.5315,28.6735],[39.2945,28.7635],[39.0395,28.951],[38.7955,29.1015],[38.488,29.2535],[38.2235,29.185],[38.269,29.349],[38.335,29.5355],[37.941,29.6905],[37.6045,29.8965],[36.1645,29.2555],[34.9605,29.3575],[34.9515,29.302],[34.9365,29.2665],[34.9115,29.225],[34.907,29.198],[34.8955,29.17],[34.878,29.1045],[34.85,29.03],[34.8505,28.979],[34.83,28.879],[34.833,28.8255],[34.815,28.7765],[34.8055,28.7245],[34.781,28.6575],[34.7945,28.573],[34.7745,28.482],[34.76,28.448],[34.7395,28.406],[34.7115,28.3305],[34.6855,28.277],[34.6735,28.2535],[34.669,28.2335],[34.662,28.2055],[34.6495,28.1845],[34.6505,28.1635],[34.625,28.162],[34.591,28.132],[34.5805,28.1135],[34.5915,28.09],[34.6095,28.085],[34.6145,28.0445],[34.615,28.038],[34.633,28.03],[34.655,28.068],[34.659,28.084],[34.6785,28.119],[34.7045,28.1245],[34.719,28.108],[34.7545,28.1],[34.7425,28.084],[34.755,28.0855],[34.739,28.06],[34.7625,28.075],[34.757,28.092],[34.7695,28.0915],[34.8035,28.108],[34.8125,28.0905],[34.811,28.0785],[34.8275,28.1065],[34.8635,28.1085],[34.8445,28.083],[34.8615,28.0745],[34.892,28.077],[34.9625,28.095],[34.986,28.101],[35.0235,28.09],[35.017,28.1085],[35.0135,28.1215],[35.0465,28.108],[35.1235,28.071],[35.189,28.0535],[35.213,28.032],[35.1865,28.0205],[35.177,27.9975],[35.2345,27.9635],[35.2965,27.905],[35.336,27.8605],[35.363,27.797],[35.4085,27.7845],[35.462,27.7225],[35.484,27.6545],[35.513,27.625],[35.5285,27.6195],[35.526,27.589],[35.543,27.563],[35.5425,27.5545],[35.5475,27.508],[35.5865,27.4545],[35.642,27.3795],[35.6975,27.348],[35.703,27.34],[35.71,27.336],[35.7145,27.3325],[35.7365,27.321],[35.809,27.2165],[35.7925,27.1725],[35.812,27.109],[35.896,27.019],[35.9645,26.966],[36.004,26.937],[36.033,26.9065],[36.0545,26.834],[36.0675,26.8085],[36.0915,26.7745],[36.108,26.731],[36.1445,26.72],[36.211,26.646],[36.228,26.635],[36.24,26.62],[36.247,26.59],[36.2835,26.547],[36.344,26.411],[36.3735,26.3505],[36.4335,26.2635],[36.461,26.2285],[36.4835,26.169],[36.5135,26.1075],[36.558,26.0735],[36.596,26.0615],[36.6135,26.056],[36.684,26.0455],[36.7055,26.0055],[36.7,25.964],[36.66,25.8735],[36.678,25.8255],[36.6965,25.7835],[36.7205,25.7675],[36.7355,25.755],[36.7575,25.7375],[36.7895,25.717],[36.8055,25.714],[36.8035,25.755],[36.82,25.7425],[36.852,25.7075],[36.875,25.67],[36.8975,25.6575],[36.939,25.6465],[36.961,25.594],[36.9735,25.5725],[36.9805,25.5555],[37.001,25.539],[37,25.52],[37.017,25.491],[37.051,25.4595],[37.077,25.4335],[37.077,25.398],[37.0985,25.3425],[37.117,25.308],[37.156,25.2675],[37.2035,25.217],[37.239,25.1785],[37.26,25.127],[37.254,25.036],[37.285,24.9835],[37.249,24.9065],[37.2355,24.8415],[37.221,24.8165],[37.197,24.823],[37.164,24.837],[37.1755,24.7915],[37.181,24.8015],[37.23,24.793],[37.219,24.763],[37.2265,24.7115],[37.2715,24.6855],[37.31,24.6515],[37.332,24.6355],[37.352,24.595],[37.383,24.5375],[37.48,24.6485],[37.597,24.6715],[37.728,24.6645],[37.8385,24.7345],[37.862,24.7875],[38.0305,24.761],[37.9945,24.8595],[37.8935,24.969],[37.8595,25.1775],[37.794,25.3145],[37.7255,25.5435],[37.8505,25.6685],[37.642,25.7805],[37.548,25.945],[37.3925,26.153],[37.3865,26.308],[37.2395,26.313],[37.2295,26.445],[37.1395,26.6805],[37.051,26.7845],[36.924,26.8615],[36.961,27.019],[36.8465,27.056],[36.7465,27.261],[36.9015,27.379],[37.0765,27.422],[37.277,27.435],[37.4,27.377],[37.586,27.4795],[37.77,27.442],[37.923,27.401],[37.8885,27.28],[37.9525,27.132],[38.019,26.972],[38.1125,26.8365],[38.481,26.818],[38.722,26.831],[39.126,26.819],[39.466,26.8495],[39.6285,27.01],[39.806,27.2375],[39.908,27.159],[40.011,27.169],[39.983,27.313],[39.919,27.529],[39.7635,27.8295],[39.574,27.9195],[39.403,28.1095],[39.5915,28.3255],[39.791,28.545]]]]}},{"type":"Feature","properties":{"region_id":"SA-03","name_en":"Al Madinah Region","name_ar":"منطقة المدينة المنورة"},"geometry":{"type":"Polygon","coordinates":[[[39.5025,26.8585],[39.421,26.829],[39.126,26.819],[38.8545,26.8285],[38.6885,26.8445],[38.529,26.828],[38.2945,26.813],[38.1125,26.8365],[38.0625,26.9345],[37.9865,27.032],[37.9525,27.132],[37.9085,27.18],[37.8965,27.2975],[37.932,27.3705],[37.858,27.435],[37.77,27.442],[37.6595,27.5265],[37.5385,27.4345],[37.419,27.3795],[37.309,27.369],[37.271,27.4365],[37.1215,27.419],[36.991,27.4545],[36.9015,27.379],[36.767,27.2985],[36.742,27.194],[36.806,27.066],[36.909,27.078],[36.9565,26.994],[36.9335,26.892],[36.958,26.835],[37.0395,26.804],[37.142,26.7315],[37.1145,26.642],[37.2155,26.463],[37.1985,26.3705],[37.25,26.3115],[37.3725,26.335],[37.3425,26.261],[37.3745,26.1735],[37.512,26.0225],[37.545,25.906],[37.6015,25.7925],[37.7435,25.7585],[37.8505,25.6685],[37.746,25.581],[37.739,25.463],[37.7965,25.3235],[37.789,25.249],[37.863,25.1725],[37.864,25.037],[37.947,24.918],[37.9945,24.8595],[38.0495,24.8595],[38.0025,24.779],[37.889,24.788],[37.799,24.759],[37.8485,24.7255],[37.772,24.6425],[37.657,24.6595],[37.597,24.6715],[37.5095,24.699],[37.469,24.626],[37.402,24.5385],[37.4085,24.5145],[37.428,24.4755],[37.44,24.463],[37.4615,24.414],[37.4355,24.4125],[37.425,24.394],[37.4395,24.357],[37.477,24.3235],[37.5305,24.272],[37.533,24.2735],[37.5555,24.2715],[37.5625,24.2675],[37.585,24.247],[37.635,24.255],[37.6285,24.264],[37.6305,24.275],[37.6175,24.2925],[37.625,24.291],[37.646,24.2865],[37.674,24.292],[37.692,24.301],[37.7125,24.275],[37.7175,24.269],[37.7265,24.2575],[37.7565,24.2555],[37.7625,24.237],[37.7925,24.2045],[37.8425,24.1635],[37.929,24.1465],[37.924,24.178],[37.914,24.195],[37.9395,24.202],[37.952,24.21],[37.9525,24.2],[37.9315,24.1715],[37.963,24.1745],[37.989,24.163],[37.9755,24.1635],[37.9515,24.1535],[37.933,24.1465],[37.979,24.115],[38.037,24.0725],[38.0625,24.079],[38.054,24.0665],[38.0795,24.0745],[38.084,24.066],[38.098,24.0555],[38.1155,24.0395],[38.135,24.026],[38.146,24.02],[38.1485,24.0175],[38.1605,24.019],[38.154,24.0065],[38.1525,24.0035],[38.1675,23.992],[38.175,23.9955],[38.1845,23.9975],[38.184,23.98],[38.217,23.957],[38.216,23.953],[38.236,23.952],[38.2365,23.9435],[38.253,23.939],[38.261,23.945],[38.28,23.9415],[38.2805,23.9175],[38.2835,23.923],[38.305,23.914],[38.307,23.9085],[38.3365,23.886],[38.3665,23.8665],[38.3955,23.8265],[38.4125,23.8125],[38.4595,23.782],[38.469,23.7185],[38.495,23.664],[38.496,23.6735],[38.5045,23.662],[38.5025,23.6575],[38.504,23.6445],[38.523,23.6335],[38.5275,23.632],[38.5265,23.6225],[38.517,23.624],[38.5385,23.598],[38.5415,23.5885],[38.543,23.54],[38.5805,23.538],[38.5705,23.541],[38.5605,23.5455],[38.559,23.568],[38.582,23.561],[38.605,23.565],[38.617,23.5335],[38.6315,23.5115],[38.644,23.4715],[38.6515,23.442],[38.6605,23.4205],[38.661,23.4335],[38.8145,23.432],[39.06,23.3065],[39.208,23.162],[39.4155,23.1855],[39.473,23.0565],[39.847,23.153],[39.9545,23.074],[39.8955,22.8825],[40.011,22.767],[40.0845,22.6745],[40.1245,22.4955],[40.3315,22.5605],[40.5275,22.601],[40.6845,22.5965],[41.064,22.9445],[41.2125,23.0875],[41.424,23.1795],[41.408,23.284],[41.2695,23.396],[41.545,23.552],[41.746,23.67],[41.7545,23.838],[41.793,23.966],[41.9865,23.949],[41.9855,24.1895],[41.999,24.4155],[42.099,24.579],[42.139,24.8355],[42.028,24.9135],[41.8785,25.0715],[41.733,25.1625],[41.632,25.2835],[41.47,25.3415],[41.406,25.4405],[41.2455,25.4795],[41.118,25.523],[40.923,25.58],[40.81,25.545],[40.749,25.447],[40.5925,25.4055],[40.4965,25.4315],[40.461,25.296],[40.3485,25.316],[40.1805,25.327],[40.0375,25.3705],[39.9635,25.4785],[39.976,25.728],[39.9535,25.8465],[39.959,25.935],[39.954,26.0845],[39.9125,26.228],[39.892,26.3585],[39.828,26.483],[39.773,26.5815],[39.668,26.6665],[39.6435,26.7395],[39.5005,26.7655],[39.5025,26.8585]]]}},{"type":"Feature","properties":{"region_id":"SA-05","name_en":"Al-Qassim Region","name_ar":"منطقة القصيم"},"geometry":{"type":"Polygon","coordinates":[[[43.9275,28.1095],[43.7845,27.9975],[43.7405,27.9565],[43.729,27.9295],[43.7245,27.8855],[43.7095,27.787],[43.705,27.7075],[43.7205,27.635],[43.7235,27.5375],[43.694,27.5145],[43.5935,27.5055],[43.5275,27.501],[43.4975,27.499],[43.4745,27.471],[43.4385,27.493],[43.3865,27.4735],[43.3865,27.4455],[43.371,27.4255],[43.2985,27.42],[43.28,27.403],[43.263,27.323],[43.27,27.3035],[43.2915,27.294],[43.3185,27.2925],[43.342,27.261],[43.2985,27.243],[43.2135,27.2095],[43.2145,27.1895],[43.209,27.173],[43.2185,27.131],[43.2105,27.1075],[43.19,27.09],[43.18,27.0615],[43.1755,27.0325],[43.1165,26.96],[43.044,26.9085],[43.0215,26.8855],[43.0025,26.875],[42.9685,26.915],[42.9265,26.9165],[42.9045,26.896],[42.8785,26.866],[42.848,26.878],[42.8285,26.853],[42.768,26.8285],[42.7495,26.819],[42.731,26.815],[42.711,26.8225],[42.714,26.7835],[42.7135,26.747],[42.665,26.685],[42.606,26.603],[42.5735,26.5935],[42.4815,26.518],[42.437,26.5115],[42.405,26.5155],[42.4005,26.4995],[42.3985,26.474],[42.36,26.4215],[42.342,26.4355],[42.358,26.456],[42.3375,26.476],[42.297,26.475],[42.249,26.42],[42.22,26.3895],[42.185,26.366],[42.1625,26.3445],[42.1985,26.2555],[42.198,26.21],[42.1605,26.155],[42.1065,26.175],[42.0705,26.18],[42.0415,26.1405],[42.019,26.1185],[41.9835,26.1135],[41.948,26.0955],[41.936,26.067],[41.9305,26.021],[41.913,25.983],[41.923,25.954],[41.898,25.9435],[41.8595,25.9675],[41.808,25.943],[41.819,25.8945],[41.8005,25.868],[41.7275,25.813],[41.709,25.7795],[41.678,25.725],[41.645,25.7195],[41.5355,25.7305],[41.4955,25.729],[41.438,25.723],[41.4135,25.681],[41.393,25.631],[41.3525,25.574],[41.3175,25.555],[41.2375,25.48],[41.269,25.4835],[41.3225,25.483],[41.3945,25.4565],[41.416,25.39],[41.452,25.3475],[41.493,25.3405],[41.528,25.337],[41.5955,25.3075],[41.646,25.272],[41.702,25.18],[41.733,25.1625],[41.782,25.1455],[41.818,25.1205],[41.917,25.0425],[41.985,24.982],[42.0015,24.9415],[42.0505,24.9045],[42.105,24.867],[42.139,24.8355],[42.131,24.758],[42.1615,24.713],[42.2535,24.704],[42.401,24.708],[42.4615,24.64],[42.497,24.552],[42.533,24.484],[42.5635,24.4455],[42.7325,24.4425],[42.8245,24.469],[42.8245,24.5105],[42.8585,24.5335],[42.9655,24.544],[43.0285,24.5265],[43.121,24.5565],[43.145,24.608],[43.2025,24.7055],[43.208,24.7415],[43.1185,24.7355],[43.0935,24.749],[43.108,24.7725],[43.159,24.789],[43.1335,24.8105],[43.124,24.8485],[43.1685,24.8585],[43.2075,24.8865],[43.2195,24.92],[43.1805,24.9365],[43.119,24.897],[43.0985,24.917],[43.125,24.987],[43.17,25.0165],[43.2435,25.011],[43.3595,25.089],[43.4155,25.1595],[43.439,25.1885],[43.4805,25.2135],[43.5285,25.205],[43.6065,25.1655],[43.6885,25.184],[43.7305,25.2195],[43.7305,25.2625],[43.734,25.311],[43.779,25.3225],[43.9165,25.3375],[44.013,25.395],[44.0545,25.4475],[44.1175,25.4655],[44.2135,25.482],[44.2975,25.505],[44.3975,25.542],[44.4285,25.583],[44.4765,25.61],[44.569,25.5685],[44.717,25.506],[44.7585,25.585],[44.7895,25.6725],[44.728,25.7495],[44.6585,25.783],[44.6275,25.819],[44.596,25.876],[44.557,25.9775],[44.5345,26.0215],[44.5065,26.0685],[44.491,26.176],[44.463,26.2705],[44.4285,26.4055],[44.398,26.579],[44.3915,26.6905],[44.394,26.7865],[44.409,26.8935],[44.4275,26.9825],[44.5,27.0115],[44.5615,27.0175],[44.6385,27.0315],[44.7075,27.0445],[44.849,26.97],[44.882,26.9325],[44.9025,26.9405],[44.878,27.0855],[44.8915,27.224],[44.835,27.366],[44.8155,27.401],[44.774,27.4535],[44.7435,27.502],[44.6775,27.56],[44.6665,27.577],[44.5965,27.658],[44.543,27.7395],[44.519,27.7595],[44.4465,27.8105],[44.39,27.8515],[44.319,27.8895],[44.2935,27.909],[44.2285,27.95],[44.083,27.9655],[44.0405,27.9375],[44.021,27.9165],[43.9915,27.8955],[43.964,27.9025],[43.951,27.9425],[43.923,27.9455],[43.911,27.97],[43.9375,28.045],[43.9275,28.1095]]]}},{"type":"Feature","properties":{"region_id":"SA-11","name_en":"Al Bahah Region","name_ar":"منطقة الباحة"},"geometry":{"type":"Polygon","coordinates":[[[42.032,20.6245],[42.0145,20.647],[41.9745,20.6775],[41.953,20.6855],[41.9315,20.6835],[41.9105,20.6775],[41.8615,20.6535],[41.8165,20.6235],[41.774,20.6085],[41.7505,20.608],[41.677,20.6155],[41.6535,20.614],[41.6065,20.601],[41.5415,20.569],[41.5195,20.5655],[41.4985,20.572],[41.4785,20.5855],[41.464,20.6055],[41.452,20.6265],[41.4445,20.646],[41.44,20.6665],[41.4265,20.7085],[41.412,20.7295],[41.3915,20.7485],[41.3705,20.7595],[41.35,20.765],[41.3295,20.766],[41.3065,20.763],[41.2845,20.7565],[41.263,20.739],[41.245,20.718],[41.235,20.699],[41.227,20.679],[41.2245,20.66],[41.231,20.6165],[41.236,20.595],[41.257,20.536],[41.258,20.5135],[41.2565,20.491],[41.2535,20.4715],[41.241,20.4485],[41.1995,20.3865],[41.1755,20.3445],[41.1605,20.3065],[41.1485,20.266],[41.1355,20.247],[41.1135,20.237],[41.0895,20.232],[41.022,20.2205],[40.957,20.2145],[40.934,20.207],[40.911,20.1965],[40.8715,20.159],[40.855,20.1405],[40.813,20.103],[40.795,20.084],[40.793,20.065],[40.8,20.0455],[40.8195,20.026],[40.8405,20.0185],[40.9045,20.0055],[40.9255,19.996],[40.944,19.976],[40.9535,19.954],[40.959,19.933],[40.959,19.9115],[40.956,19.8685],[40.9445,19.809],[40.9455,19.788],[40.951,19.766],[40.969,19.7225],[40.971,19.702],[40.964,19.641],[40.9625,19.5995],[40.9635,19.5805],[40.978,19.5565],[41.001,19.538],[41.024,19.5285],[41.066,19.508],[41.0855,19.497],[41.108,19.4795],[41.1265,19.457],[41.1515,19.4155],[41.168,19.3955],[41.19,19.377],[41.214,19.3665],[41.2445,19.362],[41.2665,19.363],[41.289,19.3665],[41.3305,19.3795],[41.353,19.396],[41.364,19.4165],[41.37,19.436],[41.3795,19.497],[41.392,19.545],[41.421,19.621],[41.428,19.6435],[41.457,19.7065],[41.482,19.7465],[41.4975,19.766],[41.52,19.7795],[41.5415,19.782],[41.6335,19.779],[41.654,19.7795],[41.6755,19.783],[41.698,19.793],[41.6985,19.797],[41.708,19.813],[41.7145,19.8315],[41.725,19.853],[41.732,19.873],[41.753,19.9115],[41.763,19.934],[41.8135,20.016],[41.822,20.0355],[41.8205,20.058],[41.813,20.111],[41.8155,20.133],[41.8225,20.1515],[41.84,20.182],[41.864,20.2],[41.8885,20.2135],[41.9115,20.229],[41.935,20.242],[42.009,20.2905],[42.031,20.3105],[42.039,20.3305],[42.0415,20.352],[42.036,20.374],[42.0175,20.3955],[41.9965,20.41],[41.9765,20.428],[41.9695,20.4495],[41.971,20.4705],[41.976,20.4895],[42.0095,20.568],[42.021,20.591],[42.032,20.6245]]]}},{"type":"Feature","properties":{"region_id":"SA-09","name_en":"Jazan Region","name_ar":"منطقة جازان"},"geometry":{"type":"MultiPolygon","coordinates":[[[[41.909,17.0935],[41.915,17.0835],[41.9205,17.0785],[41.936,17.072],[41.936,17.074],[41.93,17.0815],[41.921,17.087],[41.916,17.0925],[41.9105,17.0945],[41.909,17.0935]]],[[[41.7375,17.0575],[41.739,17.0515],[41.741,17.0495],[41.7655,17.0495],[41.7725,17.052],[41.772,17.0555],[41.7695,17.0585],[41.759,17.062],[41.756,17.0615],[41.75,17.0655],[41.7435,17.064],[41.741,17.0605],[41.7385,17.0605],[41.7375,17.0575]]],[[[41.567,16.8795],[41.5685,16.855],[41.57,16.853],[41.573,16.8535],[41.577,16.847],[41.582,16.8445],[41.586,16.839],[41.586,16.8355],[41.582,16.8335],[41.584,16.829],[41.6105,16.813],[41.6255,16.8105],[41.635,16.8135],[41.634,16.8155],[41.626,16.8185],[41.6255,16.8205],[41.615,16.827],[41.609,16.837],[41.6095,16.8385],[41.6035,16.8445],[41.602,16.85],[41.577,16.8825],[41.574,16.895],[41.571,16.898],[41.5685,16.8985],[41.569,16.889],[41.567,16.8795]]],[[[41.584,16.892],[41.587,16.8775],[41.5915,16.8735],[41.602,16.856],[41.607,16.851],[41.6065,16.8485],[41.6135,16.841],[41.6165,16.841],[41.619,16.8385],[41.62,16.8315],[41.6285,16.8285],[41.6235,16.8345],[41.62,16.8355],[41.621,16.836],[41.62,16.8395],[41.605,16.8595],[41.5975,16.8735],[41.5885,16.885],[41.586,16.892],[41.584,16.892]]],[[[41.7105,16.9105],[41.714,16.904],[41.7145,16.9085],[41.722,16.911],[41.7225,16.9155],[41.724,16.915],[41.723,16.9165],[41.726,16.92],[41.729,16.919],[41.7265,16.918],[41.7255,16.9155],[41.7265,16.915],[41.7305,16.918],[41.732,16.918],[41.732,16.916],[41.736,16.916],[41.735,16.919],[41.7335,16.922],[41.7285,16.9225],[41.7185,16.9185],[41.7115,16.9145],[41.7105,16.9105]]],[[[41.788,16.9855],[41.788,16.9825],[41.7925,16.982],[41.792,16.97],[41.7895,16.968],[41.792,16.9665],[41.7955,16.9585],[41.796,16.954],[41.8,16.9515],[41.8075,16.953],[41.8095,16.955],[41.8115,16.962],[41.822,16.968],[41.8115,16.9725],[41.81,16.9785],[41.808,16.9815],[41.7915,16.985],[41.791,16.986],[41.788,16.9855]]],[[[41.847,17.012],[41.8505,17.0115],[41.8555,17.008],[41.8605,17.0095],[41.8705,17.0085],[41.888,17.001],[41.9005,16.9905],[41.901,16.989],[41.9,16.9885],[41.8985,16.9915],[41.8975,16.991],[41.898,16.988],[41.906,16.985],[41.914,16.9795],[41.9165,16.966],[41.921,16.961],[41.9315,16.9585],[41.9395,16.9515],[41.942,16.9525],[41.9415,16.957],[41.944,16.9605],[41.9415,16.9665],[41.9425,16.9725],[41.937,16.973],[41.9375,16.9795],[41.9345,16.979],[41.933,16.977],[41.93,16.9775],[41.9215,16.982],[41.915,16.9825],[41.9095,16.9895],[41.902,16.99],[41.9005,16.995],[41.891,16.9995],[41.89,17.001],[41.8935,17.0015],[41.895,17.0035],[41.8965,17.002],[41.896,17.003],[41.8935,17.0045],[41.89,17.004],[41.8865,17.008],[41.8865,17.0055],[41.883,17.0055],[41.877,17.0095],[41.867,17.0125],[41.866,17.014],[41.861,17.012],[41.8575,17.014],[41.8565,17.017],[41.8495,17.0185],[41.848,17.0175],[41.8485,17.014],[41.847,17.012]]],[[[42.2365,16.4345],[42.2435,16.43],[42.251,16.431],[42.262,16.427],[42.266,16.4195],[42.2635,16.413],[42.261,16.412],[42.2615,16.4105],[42.2625,16.4115],[42.2665,16.4105],[42.2705,16.4085],[42.268,16.415],[42.2695,16.4215],[42.2725,16.427],[42.258,16.431],[42.2495,16.4355],[42.2395,16.436],[42.2365,16.4345]]],[[[41.8995,16.4295],[41.9015,16.424],[41.9025,16.4245],[41.902,16.418],[41.9125,16.4195],[41.9145,16.4215],[41.9115,16.423],[41.911,16.4245],[41.908,16.425],[41.906,16.4295],[41.902,16.431],[41.8995,16.4295]]],[[[42.0355,16.5495],[42.038,16.5395],[42.045,16.525],[42.0545,16.524],[42.06,16.526],[42.0625,16.529],[42.0665,16.5415],[42.0695,16.545],[42.069,16.5475],[42.0735,16.556],[42.071,16.5565],[42.07,16.564],[42.065,16.563],[42.0635,16.5605],[42.062,16.551],[42.056,16.539],[42.054,16.5395],[42.055,16.5465],[42.0585,16.553],[42.059,16.5605],[42.058,16.5635],[42.0545,16.565],[42.0445,16.5645],[42.039,16.559],[42.0355,16.5495]]],[[[42.2105,16.751],[42.212,16.748],[42.211,16.744],[42.2125,16.7435],[42.2145,16.747],[42.215,16.7485],[42.213,16.749],[42.214,16.75],[42.2205,16.754],[42.217,16.7635],[42.2135,16.7625],[42.2105,16.751]]],[[[42.4425,16.7965],[42.4475,16.786],[42.456,16.7785],[42.4565,16.7815],[42.454,16.7825],[42.4495,16.789],[42.451,16.7965],[42.4455,16.799],[42.4425,16.7965]]],[[[41.7275,16.794],[41.7305,16.7895],[41.7365,16.788],[41.7425,16.7865],[41.753,16.787],[41.756,16.789],[41.757,16.797],[41.7605,16.8015],[41.751,16.8025],[41.7345,16.807],[41.7405,16.8025],[41.741,16.8005],[41.7405,16.7995],[41.734,16.8],[41.733,16.804],[41.731,16.8035],[41.7275,16.794]]],[[[42.0005,16.7895],[42.0055,16.783],[42.0065,16.7775],[42.0085,16.7765],[42.01,16.77],[42.016,16.7685],[42.0175,16.7725],[42.0205,16.774],[42.02,16.776],[42.017,16.7745],[42.015,16.7755],[42.015,16.7805],[42.0215,16.7825],[42.0205,16.786],[42.0105,16.787],[42.0095,16.7885],[42.0095,16.795],[42.0055,16.7995],[42.005,16.7975],[42.007,16.7955],[42.0045,16.789],[42.0005,16.7895]]],[[[41.906,16.6265],[41.916,16.6165],[41.9245,16.613],[41.9275,16.614],[41.9235,16.6185],[41.922,16.625],[41.917,16.6275],[41.9175,16.63],[41.922,16.6295],[41.922,16.6315],[41.915,16.6325],[41.916,16.6295],[41.915,16.6285],[41.9095,16.6285],[41.906,16.6265]]],[[[41.843,16.667],[41.8435,16.6655],[41.8485,16.663],[41.8495,16.66],[41.8565,16.6575],[41.8605,16.6535],[41.86,16.6485],[41.8625,16.6455],[41.877,16.645],[41.882,16.64],[41.8855,16.6395],[41.885,16.641],[41.8805,16.645],[41.8785,16.6505],[41.874,16.656],[41.865,16.659],[41.853,16.6665],[41.8445,16.669],[41.843,16.667]]],[[[41.722,16.7285],[41.724,16.723],[41.731,16.7185],[41.7375,16.7105],[41.744,16.706],[41.756,16.703],[41.7605,16.697],[41.7955,16.693],[41.8055,16.693],[41.8115,16.69],[41.8135,16.6855],[41.8195,16.6855],[41.83,16.679],[41.8325,16.6795],[41.8265,16.6935],[41.8125,16.7005],[41.804,16.7095],[41.8005,16.711],[41.795,16.717],[41.789,16.72],[41.7945,16.72],[41.7985,16.716],[41.8045,16.7155],[41.805,16.714],[41.8095,16.7145],[41.8075,16.719],[41.7935,16.728],[41.7425,16.7385],[41.7555,16.727],[41.7495,16.7285],[41.752,16.726],[41.749,16.728],[41.744,16.7285],[41.7425,16.7295],[41.745,16.7345],[41.74,16.7325],[41.7325,16.733],[41.722,16.73],[41.722,16.7285]]],[[[41.9735,16.592],[41.9735,16.59],[41.9755,16.5885],[41.9845,16.589],[41.995,16.6],[41.988,16.598],[41.98,16.599],[41.9755,16.596],[41.9735,16.592]]],[[[41.9975,16.6225],[42.0015,16.6265],[42.0075,16.624],[42.01,16.62],[42.008,16.617],[42.009,16.612],[42.0165,16.604],[42.018,16.604],[42.018,16.613],[42.015,16.6165],[42.016,16.623],[42.0175,16.623],[42.02,16.619],[42.0255,16.629],[42.0295,16.6305],[42.03,16.6335],[42.035,16.6325],[42.033,16.627],[42.0315,16.6255],[42.0295,16.626],[42.0265,16.621],[42.0275,16.6085],[42.03,16.605],[42.0295,16.602],[42.0305,16.6025],[42.032,16.599],[42.0345,16.6265],[42.0375,16.6325],[42.0435,16.639],[42.0415,16.647],[42.0365,16.6505],[42.036,16.6535],[42.0335,16.6555],[42.0105,16.6515],[42.008,16.649],[42.003,16.6395],[42,16.638],[41.998,16.6325],[41.9975,16.6225]]],[[[41.755,16.89],[41.756,16.879],[41.7595,16.8745],[41.76,16.8645],[41.767,16.8655],[41.773,16.859],[41.776,16.854],[41.7865,16.8455],[41.7885,16.84],[41.7875,16.834],[41.7825,16.8255],[41.777,16.8215],[41.773,16.807],[41.7755,16.8055],[41.7905,16.806],[41.802,16.807],[41.7895,16.8095],[41.796,16.8125],[41.809,16.809],[41.8165,16.802],[41.819,16.8005],[41.8285,16.791],[41.832,16.784],[41.835,16.779],[41.833,16.7785],[41.8395,16.755],[41.852,16.7425],[41.868,16.732],[41.8885,16.716],[41.8915,16.717],[41.895,16.716],[41.897,16.715],[41.916,16.7095],[41.9175,16.703],[41.922,16.6965],[41.9335,16.6855],[41.947,16.681],[41.9765,16.6675],[41.98,16.6685],[41.9835,16.679],[41.9865,16.6835],[41.985,16.6855],[41.986,16.684],[42.0205,16.686],[42.0585,16.6955],[42.0855,16.691],[42.0985,16.685],[42.0985,16.6865],[42.109,16.6815],[42.1135,16.6745],[42.113,16.6535],[42.1075,16.6445],[42.105,16.643],[42.0885,16.639],[42.0775,16.6365],[42.073,16.631],[42.088,16.627],[42.126,16.6205],[42.1405,16.61],[42.1485,16.5955],[42.152,16.593],[42.1545,16.586],[42.178,16.58],[42.187,16.5835],[42.1905,16.588],[42.19,16.5895],[42.189,16.593],[42.194,16.606],[42.1895,16.607],[42.1795,16.642],[42.182,16.6515],[42.18,16.654],[42.176,16.6545],[42.1745,16.667],[42.1815,16.6755],[42.189,16.682],[42.1925,16.6845],[42.1905,16.6855],[42.19,16.6985],[42.193,16.705],[42.192,16.71],[42.189,16.712],[42.1825,16.7065],[42.1795,16.7035],[42.1635,16.696],[42.161,16.69],[42.16,16.6965],[42.1705,16.7025],[42.1705,16.704],[42.167,16.7035],[42.1655,16.703],[42.164,16.7045],[42.167,16.705],[42.167,16.704],[42.169,16.7035],[42.171,16.705],[42.1785,16.708],[42.1795,16.713],[42.1815,16.72],[42.1805,16.7225],[42.1675,16.719],[42.1605,16.7175],[42.155,16.718],[42.155,16.7195],[42.1515,16.7245],[42.1485,16.7285],[42.1445,16.7315],[42.132,16.7455],[42.1315,16.7465],[42.1295,16.744],[42.1285,16.7455],[42.1275,16.744],[42.122,16.752],[42.1135,16.758],[42.111,16.7645],[42.11,16.769],[42.1035,16.7765],[42.1035,16.778],[42.1045,16.779],[42.103,16.779],[42.103,16.7815],[42.1075,16.786],[42.1075,16.7875],[42.106,16.7895],[42.104,16.7905],[42.102,16.786],[42.1035,16.791],[42.103,16.7925],[42.101,16.791],[42.1015,16.795],[42.105,16.799],[42.103,16.8],[42.099,16.7935],[42.0985,16.7885],[42.096,16.7895],[42.097,16.796],[42.0995,16.7975],[42.096,16.8015],[42.0935,16.8125],[42.093,16.81],[42.089,16.8105],[42.087,16.8135],[42.0875,16.819],[42.0845,16.818],[42.0855,16.816],[42.0845,16.8145],[42.0715,16.8145],[42.0695,16.812],[42.065,16.805],[42.066,16.8035],[42.069,16.7985],[42.066,16.796],[42.058,16.8025],[42.0565,16.803],[42.0535,16.8],[42.054,16.798],[42.054,16.7965],[42.046,16.777],[42.048,16.766],[42.0325,16.751],[42.0335,16.7475],[42.036,16.7525],[42.0365,16.7465],[42.04,16.744],[42.0395,16.737],[42.043,16.7325],[42.0685,16.733],[42.0705,16.7375],[42.06,16.7505],[42.06,16.753],[42.0645,16.755],[42.0655,16.7495],[42.0725,16.7485],[42.082,16.731],[42.0815,16.7225],[42.0715,16.714],[42.0665,16.7165],[42.064,16.722],[42.065,16.7225],[42.0625,16.7245],[42.0545,16.721],[42.0405,16.709],[42.0275,16.714],[42.026,16.718],[42.024,16.727],[42.0205,16.7365],[42.0005,16.7475],[41.9985,16.748],[41.9925,16.745],[41.981,16.7385],[41.9735,16.733],[41.9595,16.737],[41.953,16.7395],[41.911,16.7475],[41.904,16.749],[41.8945,16.754],[41.87,16.7815],[41.867,16.788],[41.865,16.8075],[41.8675,16.819],[41.855,16.826],[41.853,16.8385],[41.849,16.843],[41.8445,16.8455],[41.843,16.8485],[41.825,16.862],[41.8235,16.861],[41.817,16.8645],[41.811,16.8645],[41.803,16.8685],[41.8045,16.8675],[41.7915,16.87],[41.7895,16.873],[41.7905,16.874],[41.794,16.874],[41.7815,16.879],[41.7765,16.8885],[41.77,16.8895],[41.7615,16.892],[41.758,16.894],[41.755,16.89]]],[[[41.991,16.8315],[41.992,16.828],[42.0065,16.833],[42.019,16.8335],[42.019,16.8325],[42.0285,16.8315],[42.03,16.828],[42.0315,16.8305],[42.038,16.8335],[42.0395,16.8385],[42.0385,16.8415],[42.034,16.8425],[42.0315,16.84],[42.027,16.8395],[42.024,16.8435],[42.0215,16.8415],[42.0215,16.8395],[42.013,16.8365],[42.0065,16.839],[42.0055,16.8405],[41.994,16.8355],[41.991,16.8315]]],[[[41.837,16.899],[41.844,16.8815],[41.8655,16.856],[41.87,16.842],[41.879,16.8385],[41.882,16.8355],[41.8835,16.8235],[41.8805,16.82],[41.8875,16.819],[41.911,16.8005],[41.9235,16.7935],[41.94,16.7885],[41.9625,16.7855],[41.965,16.783],[41.9675,16.7845],[41.9715,16.7835],[41.9715,16.785],[41.9745,16.787],[41.985,16.783],[41.9885,16.777],[41.989,16.7725],[41.988,16.7715],[41.9875,16.772],[41.9875,16.769],[41.9915,16.765],[41.994,16.7575],[41.9985,16.7515],[42.0015,16.7565],[42.011,16.7615],[42.012,16.7635],[42.009,16.764],[42,16.776],[41.9985,16.781],[41.9935,16.788],[41.9945,16.7925],[41.9905,16.793],[41.9835,16.8],[41.9815,16.804],[41.9775,16.805],[41.973,16.8095],[41.974,16.811],[41.973,16.8125],[41.9645,16.81],[41.962,16.812],[41.961,16.811],[41.9565,16.813],[41.9515,16.819],[41.9405,16.8205],[41.937,16.8255],[41.934,16.8265],[41.933,16.83],[41.9345,16.831],[41.9315,16.832],[41.9235,16.841],[41.924,16.8475],[41.926,16.8465],[41.9265,16.848],[41.929,16.848],[41.934,16.853],[41.9485,16.8565],[41.957,16.856],[41.961,16.853],[41.9695,16.856],[41.974,16.8545],[41.9805,16.8495],[41.9825,16.8495],[41.9835,16.854],[41.9815,16.857],[41.985,16.8565],[41.9825,16.86],[41.983,16.8655],[41.9785,16.867],[41.9775,16.8695],[41.983,16.8715],[41.985,16.8695],[41.9905,16.8695],[41.99,16.8715],[41.989,16.87],[41.9855,16.871],[41.9805,16.876],[41.9795,16.8735],[41.9775,16.873],[41.976,16.8745],[41.97,16.875],[41.966,16.879],[41.953,16.881],[41.9495,16.883],[41.948,16.8875],[41.935,16.903],[41.933,16.9115],[41.9385,16.9205],[41.943,16.922],[41.942,16.9235],[41.945,16.9265],[41.947,16.9325],[41.942,16.9405],[41.9375,16.9375],[41.9375,16.947],[41.934,16.952],[41.9305,16.954],[41.9245,16.954],[41.915,16.9575],[41.917,16.952],[41.912,16.943],[41.8935,16.9235],[41.8875,16.9195],[41.873,16.915],[41.864,16.9145],[41.8435,16.9155],[41.8435,16.912],[41.837,16.899]]],[[[42.4035,16.8855],[42.406,16.881],[42.4115,16.879],[42.416,16.88],[42.419,16.884],[42.414,16.888],[42.41,16.889],[42.4035,16.8855]]],[[[41.651,16.9195],[41.654,16.916],[41.6615,16.912],[41.663,16.9085],[41.6695,16.9035],[41.6715,16.899],[41.6755,16.899],[41.677,16.8925],[41.6795,16.8905],[41.6835,16.8915],[41.691,16.8975],[41.6965,16.899],[41.7075,16.899],[41.708,16.9045],[41.706,16.9095],[41.711,16.9165],[41.7145,16.92],[41.7185,16.9195],[41.72,16.9225],[41.7195,16.924],[41.7155,16.926],[41.725,16.928],[41.7275,16.9315],[41.722,16.9345],[41.721,16.937],[41.711,16.9405],[41.7105,16.943],[41.707,16.9435],[41.707,16.945],[41.7055,16.9445],[41.7045,16.951],[41.7015,16.9535],[41.6895,16.96],[41.6825,16.9615],[41.677,16.9595],[41.6685,16.948],[41.664,16.945],[41.657,16.937],[41.6515,16.925],[41.651,16.9195]]],[[[41.7705,18.314],[41.7235,18.2385],[41.5875,18.095],[41.5905,18.0885],[41.596,18.083],[41.6025,18.0615],[41.6275,18.056],[41.642,18.054],[41.646,18.04],[41.6515,18.019],[41.634,18.0155],[41.6425,17.994],[41.65,17.993],[41.653,17.991],[41.6625,18.0025],[41.6595,18.014],[41.667,18.0155],[41.6695,18.007],[41.675,17.997],[41.6705,17.988],[41.6625,17.9825],[41.6735,17.9765],[41.6805,17.966],[41.685,17.963],[41.6915,17.953],[41.6865,17.947],[41.6915,17.9415],[41.7055,17.93],[41.7135,17.9185],[41.7725,17.8635],[41.7715,17.8435],[41.7875,17.8395],[41.809,17.829],[41.842,17.809],[41.8615,17.8075],[41.878,17.802],[41.8925,17.804],[41.883,17.799],[41.887,17.7945],[41.9085,17.77],[41.9315,17.7555],[41.9605,17.728],[41.9875,17.71],[41.997,17.7045],[41.999,17.7025],[42.013,17.697],[42.0465,17.678],[42.0625,17.6585],[42.064,17.652],[42.094,17.6415],[42.139,17.5875],[42.144,17.558],[42.1555,17.5705],[42.18,17.5595],[42.184,17.556],[42.1875,17.5485],[42.2005,17.5385],[42.2075,17.5295],[42.2295,17.518],[42.239,17.4995],[42.2545,17.4855],[42.2685,17.467],[42.2815,17.448],[42.2795,17.453],[42.28,17.458],[42.2845,17.4555],[42.2875,17.4625],[42.2925,17.4515],[42.3235,17.42],[42.31,17.3385],[42.315,17.3375],[42.3175,17.33],[42.323,17.341],[42.329,17.3295],[42.3305,17.319],[42.3335,17.3035],[42.338,17.2085],[42.3515,17.173],[42.372,17.015],[42.3725,17.015],[42.38,17.0285],[42.378,17.029],[42.376,17.036],[42.379,17.0415],[42.3785,17.0455],[42.375,17.063],[42.373,17.081],[42.3735,17.1095],[42.3945,17.116],[42.3875,17.1235],[42.382,17.1335],[42.3845,17.1395],[42.3785,17.149],[42.369,17.1615],[42.359,17.1755],[42.376,17.178],[42.3955,17.168],[42.419,17.16],[42.425,17.152],[42.419,17.136],[42.415,17.105],[42.425,17.093],[42.4305,17.088],[42.436,17.082],[42.4445,17.0775],[42.449,17.0615],[42.458,17.0515],[42.4665,17.047],[42.4815,17.0435],[42.4935,17.045],[42.5015,17.0425],[42.507,17.0375],[42.5215,17.0345],[42.5355,17.022],[42.5395,17.0205],[42.54,17.0125],[42.551,16.9865],[42.538,16.9515],[42.543,16.922],[42.54,16.901],[42.5345,16.8965],[42.536,16.8945],[42.5315,16.893],[42.539,16.887],[42.5315,16.8805],[42.5485,16.874],[42.558,16.8725],[42.569,16.862],[42.5765,16.858],[42.572,16.849],[42.571,16.8405],[42.582,16.8315],[42.5735,16.842],[42.5855,16.8395],[42.588,16.84],[42.604,16.8315],[42.6075,16.8265],[42.614,16.827],[42.6235,16.8215],[42.6535,16.8005],[42.6625,16.7925],[42.678,16.7715],[42.681,16.7615],[42.689,16.748],[42.7005,16.736],[42.6905,16.7325],[42.7085,16.691],[42.716,16.6975],[42.7175,16.6745],[42.7345,16.6725],[42.7135,16.67],[42.7115,16.6665],[42.73,16.661],[42.7265,16.656],[42.727,16.6275],[42.718,16.597],[42.713,16.5835],[42.7265,16.5505],[42.729,16.532],[42.7325,16.5175],[42.734,16.5085],[42.7375,16.502],[42.765,16.487],[42.7735,16.471],[42.7745,16.449],[42.7645,16.43],[42.7545,16.412],[42.773,16.403],[42.8305,16.3795],[42.95,16.407],[42.9505,16.497],[42.9905,16.5215],[43.061,16.53],[43.1225,16.552],[43.1395,16.622],[43.145,16.678],[43.1845,16.658],[43.232,16.6625],[43.2245,16.6995],[43.2255,16.7315],[43.221,16.7475],[43.2415,16.743],[43.253,16.7815],[43.2555,16.8015],[43.2325,16.807],[43.194,16.8515],[43.1515,16.88],[43.1375,16.9105],[43.1645,16.9305],[43.1935,16.9505],[43.181,16.9805],[43.18,17.009],[43.1905,17.025],[43.2025,17.01],[43.2255,17.0115],[43.24,17.024],[43.208,17.0785],[43.164,17.1255],[43.193,17.1885],[43.202,17.256],[43.267,17.292],[43.3365,17.304],[43.235,17.389],[43.2605,17.49],[43.31,17.5275],[43.2085,17.6515],[43.0985,17.7185],[43.026,17.819],[42.938,18],[42.81,17.9605],[42.7145,17.804],[42.6295,17.658],[42.5295,17.7355],[42.445,17.867],[42.3665,17.9075],[42.1465,17.9305],[42.0905,18.048],[41.9625,18.0425],[41.9195,18.158],[41.9,18.327],[41.7705,18.314]]]]}},{"type":"Feature","properties":{"region_id":"SA-12","name_en":"Al Jawf Region","name_ar":"منطقة الجوف"},"geometry":{"type":"Polygon","coordinates":[[[37.9655,31.746],[37.64,31.6635],[37.2645,31.241],[37.532,30.975],[37.753,30.7545],[37.6655,30.3325],[37.521,30.0425],[37.5125,29.991],[37.5785,29.9175],[37.6345,29.8775],[37.721,29.823],[37.8615,29.737],[37.9215,29.6975],[38.0605,29.641],[38.205,29.606],[38.2435,29.585],[38.371,29.5195],[38.4005,29.492],[38.392,29.472],[38.3205,29.4105],[38.236,29.2855],[38.221,29.257],[38.21,29.201],[38.238,29.178],[38.287,29.186],[38.403,29.2325],[38.488,29.2535],[38.5395,29.2515],[38.6105,29.22],[38.729,29.147],[38.7955,29.1015],[38.911,29.049],[38.998,28.9925],[39.0345,28.9595],[39.066,28.9275],[39.1575,28.8535],[39.2095,28.8245],[39.2945,28.7635],[39.3395,28.7415],[39.376,28.724],[39.5205,28.6745],[39.605,28.647],[39.664,28.6265],[39.7685,28.586],[39.8065,28.5515],[39.828,28.5685],[39.9505,28.6335],[40.1125,28.685],[40.1545,28.701],[40.2,28.7265],[40.228,28.7415],[40.2645,28.752],[40.4245,28.8155],[40.4705,28.8425],[40.5285,28.882],[40.5625,28.8875],[40.579,28.887],[40.649,28.8915],[40.701,28.8835],[40.7425,28.876],[40.7985,28.883],[40.8735,28.8885],[40.92,28.881],[41.0105,28.88],[41.08,28.875],[41.1195,28.8745],[41.254,28.881],[41.324,28.871],[41.349,28.9075],[41.3755,29.0105],[41.399,29.074],[41.4165,29.106],[41.476,29.133],[41.572,29.127],[41.608,29.1415],[41.5945,29.203],[41.5795,29.268],[41.592,29.302],[41.5685,29.325],[41.5365,29.4025],[41.502,29.4615],[41.511,29.536],[41.473,29.5585],[41.456,29.5505],[41.438,29.5225],[41.417,29.563],[41.412,29.609],[41.4125,29.659],[41.419,29.7555],[41.395,29.791],[41.4325,29.8105],[41.5035,29.818],[41.5215,29.8535],[41.5495,29.8685],[41.58,29.915],[41.618,29.923],[41.713,29.9265],[41.74,29.911],[41.7635,29.923],[41.79,30.024],[41.8185,30.039],[41.9045,30.051],[41.9565,30.0655],[41.9785,30.0885],[41.9335,30.131],[41.8745,30.171],[41.8445,30.2055],[41.797,30.258],[41.7665,30.288],[41.7545,30.312],[41.6965,30.3375],[41.6135,30.342],[41.582,30.36],[41.5595,30.4305],[41.6075,30.468],[41.6305,30.4915],[41.6325,30.5205],[41.581,30.527],[41.5515,30.5355],[41.5115,30.5485],[41.439,30.577],[41.4185,30.5885],[41.3735,30.57],[41.3175,30.5725],[41.2835,30.576],[41.197,30.5785],[41.156,30.5255],[41.1375,30.5065],[41.1055,30.522],[41.1015,30.572],[41.117,30.6015],[41.1225,30.658],[41.1,30.6985],[41.102,30.7135],[41.061,30.75],[40.944,30.7685],[40.8935,30.7715],[40.7955,30.7515],[40.744,30.745],[40.6365,30.744],[40.4715,30.784],[40.4355,30.781],[40.362,30.8015],[40.313,30.825],[40.28,30.8245],[40.2405,30.789],[40.212,30.768],[40.199,30.747],[40.135,30.734],[40.0635,30.749],[40.0315,30.7785],[39.99,30.794],[39.9545,30.831],[39.9115,30.8495],[39.8805,30.8795],[39.837,30.8805],[39.8105,30.8685],[39.771,30.8545],[39.7095,30.8725],[39.6495,30.915],[39.618,30.9055],[39.573,30.9165],[39.551,30.91],[39.501,30.918],[39.4615,30.908],[39.4295,30.893],[39.385,30.902],[39.314,30.951],[39.209,30.9695],[39.034,30.9675],[38.996,30.968],[38.9725,30.965],[38.95,30.9595],[38.8455,30.902],[38.8045,30.9025],[38.7755,30.8815],[38.757,30.9115],[38.734,30.93],[38.6805,30.9265],[38.6275,30.9325],[38.5435,30.932],[38.467,30.908],[38.4165,30.906],[38.32,30.9],[38.27,30.8875],[38.257,30.873],[38.2295,30.8625],[38.2,30.8605],[38.1825,30.865],[38.1635,30.9435],[38.179,31.0015],[38.1615,31.029],[38.161,31.077],[38.1175,31.1145],[38.0975,31.097],[38.071,31.12],[38.097,31.151],[38.083,31.172],[38.0635,31.151],[38.0125,31.196],[37.9915,31.2055],[37.935,31.203],[37.901,31.201],[37.89,31.2145],[37.91,31.2355],[37.9265,31.2715],[37.9375,31.3035],[37.936,31.3435],[37.9605,31.367],[37.962,31.3895],[37.9425,31.4415],[37.9575,31.4645],[37.961,31.486],[37.9485,31.538],[37.947,31.565],[37.956,31.5905],[37.9375,31.6505],[37.956,31.6715],[37.9625,31.683],[37.9485,31.719],[37.9655,31.746]]]}}]}